{"type":"FeatureCollection","features":[{"type":"Feature","geometry":{"type":"Polygon","coordinates":[[[-88.26364100017693,42.066872999890435],[-88.26354599974238,42.058979999847],[-88.26354200044274,42.05865400000401],[-88.26351399995532,42.05683599982747],[-88.26348800001605,42.055034000313164],[-88.26343399958938,42.05044800027181],[-88.26340799965011,42.046409999805036],[-88.26340099997742,42.044882000252905],[-88.26342699991669,42.03658000010655],[-88.26342699991669,42.036549000242864],[-88.26337500003815,42.03381399988935],[-88.26333999987806,42.029093999727316],[-88.26331999978656,42.02663599990377],[-88.26322799972506,42.02279000010804],[-88.26357199968164,42.01541699991862],[-88.26321299965643,42.014123999945944],[-88.26318500006737,42.01194900008699],[-88.26314700043253,42.00896500010388],[-88.26309800002872,42.00502899979517],[-88.26292200030163,41.993616000165474],[-88.26287500044596,41.98637800021031],[-88.25507300015104,41.98651400019269],[-88.25327100035234,41.98654599998924],[-88.25094800014674,41.98658500013679],[-88.23822099978136,41.98680600007675],[-88.23767199978536,41.986817000041626],[-88.23690299968133,41.98683700015503],[-88.23690299968133,41.9868030000253],[-88.23447900009172,41.986902000313215],[-88.23244899978907,41.98695399999132],[-88.2322660003893,41.98695700003565],[-88.23138299958413,41.98664600025127],[-88.22870799992434,41.98670499982475],[-88.22836899999064,41.98703100019432],[-88.21870299997273,41.98713800000086],[-88.21120699999956,41.98725399971903],[-88.20739599981462,41.98732599973714],[-88.20727600016401,41.987329999995424],[-88.18879000022515,41.98759300023402],[-88.18596900007718,41.98763599997924],[-88.18421499995907,41.98759900026231],[-88.18356499968073,41.987611999876584],[-88.17409600020464,41.98769900020574],[-88.16875400038266,41.98773899987208],[-88.1598790002101,41.987911999842076],[-88.15957200006343,41.98791900006254],[-88.14935299985159,41.98816800015478],[-88.1471150000348,41.9881990002375],[-88.14510099962568,41.98824200024111],[-88.14483600021013,41.98825400017484],[-88.12919099961239,41.98883600025414],[-88.12799200023638,41.98887299991983],[-88.12701700026803,41.98893300030643],[-88.12223799978743,41.98911200025588],[-88.11928100009534,41.989228999917245],[-88.11720700031007,41.98931099970579],[-88.10985500027697,41.98958499992681],[-88.10674899972364,41.98970200005417],[-88.10087399979918,41.989924000047125],[-88.0905890003634,41.99030999971328],[-88.09019199980504,41.99032300010929],[-88.08022299983845,41.99075199967022],[-88.0699330003798,41.99104500031864],[-88.06971200044688,41.991041999799286],[-88.0610339999178,41.9914139996927],[-88.05654599969036,41.991640999875166],[-88.05577300028666,41.99168099973521],[-88.05095899964599,41.99191900005174],[-88.04825300002406,41.99189400006877],[-88.04628100034604,41.991963999862875],[-88.0411810003734,41.99214699992438],[-88.0399639996574,41.99219399988443],[-88.03144900023328,41.99252699990013],[-88.03131000031611,41.99252599975035],[-88.02377800035792,41.99248900020494],[-88.02346600018839,41.99248800005455],[-88.01648999989891,41.992463999778174],[-88.00315800035933,41.99262099989201],[-87.99816600034171,41.99268299971125],[-87.99717600030476,41.99269299984874],[-87.99542499966138,41.992714999745104],[-87.99338100001336,41.992731000089805],[-87.97954099958736,41.99287199990748],[-87.9788460000015,41.99288200001527],[-87.976593999941,41.99291500009277],[-87.97035300031867,41.99300099970858],[-87.96875499983616,41.99302599992442],[-87.95946799993496,41.99316500014439],[-87.95923100010849,41.993170000175496],[-87.95289099985362,41.993280000092106],[-87.9471709997399,41.993383000199806],[-87.93994599992836,41.99348100013457],[-87.93896699976206,41.993515000035764],[-87.9204759998003,41.993886000035936],[-87.9202289999281,41.97183999979446],[-87.92017100020179,41.958165000294976],[-87.92019700014104,41.95325900033301],[-87.92020499963864,41.951269999791194],[-87.9202430001718,41.946360000093364],[-87.92024399999671,41.943125999676674],[-87.9202509996694,41.941600000046776],[-87.92026499991312,41.93580399967509],[-87.92028800037765,41.931299999847546],[-87.92032600001248,41.92495899984586],[-87.9203279996623,41.924098000179505],[-87.920341999906,41.92156599996488],[-87.9203619999975,41.91741599975531],[-87.92039299995963,41.914036999828625],[-87.92042300009685,41.90684300027629],[-87.9205600003642,41.89969699995913],[-87.92056600021199,41.89731600029702],[-87.92062399993831,41.88975199971003],[-87.92062499976322,41.8896900000383],[-87.92060700021987,41.88307800010788],[-87.92060600039495,41.88270099976055],[-87.92050799958736,41.876908999747805],[-87.9204959998918,41.8764100000785],[-87.92045900008186,41.873114000021374],[-87.92048599984604,41.86955199976818],[-87.92047300032557,41.8678289999351],[-87.9204619995566,41.86746499997527],[-87.92033000021044,41.862164000160234],[-87.9203140003169,41.86187700025424],[-87.9202990002483,41.861597999970925],[-87.91995699994153,41.85858400023679],[-87.91939500042506,41.8540389997019],[-87.91923800006622,41.84768099990371],[-87.91979299991002,41.84054999975714],[-87.91895199983597,41.83314899984551],[-87.91863899984152,41.82641699978764],[-87.91861000042752,41.82578199989903],[-87.91859600018381,41.82548399973861],[-87.91828200036446,41.81872000002799],[-87.9182449996562,41.817872000260934],[-87.91779500029273,41.80807299967013],[-87.91767599956874,41.80564399997859],[-87.91767200026909,41.80539800024681],[-87.91760699997177,41.803944000170326],[-87.91701600014295,41.78942800009515],[-87.916871000378,41.78519099999185],[-87.91671999986694,41.78173300008153],[-87.91665799994267,41.780223999924196],[-87.91632200038201,41.77151500030517],[-87.91614999995456,41.767062999842736],[-87.91581100002085,41.75683500010884],[-87.9158079996478,41.756720999958404],[-87.91541099998776,41.745716000003604],[-87.91511899990971,41.73844400007126],[-87.91488299990817,41.7311350002677],[-87.91470100033328,41.72591300014182],[-87.91461000009669,41.72388800027062],[-87.91450399979148,41.722305999829246],[-87.9144629997836,41.72176199983163],[-87.91426399959197,41.716598000281216],[-87.9173850002139,41.71618400012041],[-87.91825300005213,41.71657100017712],[-87.92086499996273,41.71644099974052],[-87.925178000288,41.71285699980868],[-87.92723899965446,41.712633999934575],[-87.9289440002671,41.71115000031376],[-87.93008200044207,41.71018699983433],[-87.93158100029204,41.70950000024173],[-87.93350299974134,41.708855999775615],[-87.93422599981461,41.70845699998958],[-87.93471500043447,41.70800199989404],[-87.93530299989021,41.70710399990727],[-87.93656599973865,41.70544299978045],[-87.9406530001081,41.70361400021203],[-87.94105599961591,41.70344700030427],[-87.9420890002089,41.702716999965055],[-87.94214199991235,41.70059300013568],[-87.94225200041552,41.699613999775515],[-87.94221800008033,41.699101999877264],[-87.94512999956659,41.69707099985193],[-87.94784500030765,41.695131999900745],[-87.95354199995688,41.693479000191196],[-87.95539700035734,41.693122999785636],[-87.95843299969215,41.69102999985766],[-87.9666740003782,41.68674200027909],[-87.97178699987133,41.687246000075575],[-87.97543300019981,41.686543999877806],[-87.97941500008898,41.68732199989931],[-87.98090700026627,41.68703399988091],[-87.981430000323,41.68677099998179],[-87.98215199967306,41.686078000248955],[-87.98716600033028,41.68596599979475],[-87.98966699991279,41.68591000016538],[-87.9993470001744,41.68573100013671],[-88.00096900004803,41.68570300022587],[-88.00233900002658,41.68571499999748],[-88.00445499964465,41.6856659999656],[-88.00494099989145,41.68565200033298],[-88.01108100012978,41.6854880001929],[-88.01245100010833,41.685554999727955],[-88.0129630002944,41.685495000027466],[-88.01372700037555,41.685483000214816],[-88.02043400015322,41.6853799997742],[-88.0289729998668,41.68524199986988],[-88.0286769995908,41.674428000263106],[-88.02863999978086,41.6725499997674],[-88.0285650003361,41.670285000325244],[-88.02856100013815,41.670101999779185],[-88.0285569999402,41.669915000044185],[-88.02851199973436,41.66851499979303],[-88.02848599979508,41.667455000018904],[-88.02842499969572,41.66495400020963],[-88.02835400044891,41.66353400010225],[-88.02813799964055,41.65616499991409],[-88.02813599999071,41.656097999985924],[-88.02813299961767,41.65598400027847],[-88.02810900022654,41.65515199987135],[-88.02800299992133,41.65151999980169],[-88.0280010002715,41.651450000046424],[-88.02792799957825,41.64877000006176],[-88.0278110003007,41.64514699992107],[-88.02768800027705,41.641505999862105],[-88.01859299999647,41.64166899967737],[-88.01848300039161,41.641671999826634],[-88.0069500002777,41.64188100025766],[-88.00527399997738,41.64191100030245],[-88.00259799959437,41.64195300020738],[-87.99923099982345,41.64201899981095],[-87.97981699977188,41.64254799983611],[-87.96277100013177,41.64282800016921],[-87.95907200009982,41.64291200009902],[-87.95077799971031,41.643098999709316],[-87.95059500031053,41.64310300004327],[-87.94116699994399,41.64332100007864],[-87.93145400007045,41.64353499974086],[-87.92177299998393,41.64373300020065],[-87.91193000041402,41.643932999857576],[-87.91184900022317,41.64006500013439],[-87.91174299991798,41.6367090000941],[-87.91163599978785,41.63306200021028],[-87.91154000042668,41.62940900001106],[-87.91150400044168,41.62832799985062],[-87.91116100031,41.6195350001355],[-87.9109989999283,41.61489900023782],[-87.91078800004111,41.607578999715116],[-87.91046099980296,41.600301999954006],[-87.9103450003503,41.59817500016976],[-87.91048799956714,41.596706000310085],[-87.91041099957424,41.59273200019917],[-87.91034000032744,41.590506000082875],[-87.9102959999465,41.58876500024895],[-87.90990000011138,41.57755800014147],[-87.90943700032912,41.56080199987668],[-87.90944800019976,41.56019099981549],[-87.90937700005466,41.55681899994493],[-87.90467799994002,41.55693000017128],[-87.90226600004596,41.55682899970667],[-87.89020099965447,41.557125999857156],[-87.87078599977802,41.5573399998574],[-87.86103000024676,41.55751800013451],[-87.86078699967418,41.55752199972725],[-87.85618499964392,41.5576059998563],[-87.85395699987286,41.55764500019119],[-87.85349099971755,41.55765400026512],[-87.84195099993094,41.55786199983223],[-87.83172500004639,41.5580249999817],[-87.82556300006677,41.558124000144],[-87.81794300024504,41.55820399994035],[-87.81714400000378,41.558215999934866],[-87.81226199959104,41.558290999850094],[-87.7927930001862,41.558540000288914],[-87.79229000022096,41.543734000114895],[-87.7921320000372,41.53830900002024],[-87.79044300021643,41.53959300006618],[-87.79040200020853,41.53547000005657],[-87.79040800005633,41.52815999998384],[-87.79040800005633,41.528040999984114],[-87.79039899983549,41.520854999776354],[-87.79041599955393,41.513509999955744],[-87.79041300007918,41.51129099973694],[-87.7904139999041,41.510313999815345],[-87.79031900036786,41.50642799968194],[-87.79030599994907,41.50624800000471],[-87.79031699981971,41.49903600000342],[-87.79031299962176,41.492140000243914],[-87.79031000014702,41.49178200016788],[-87.79029699972824,41.48611300000377],[-87.79030299957603,41.46984599996967],[-87.78730200040131,41.46983900028235],[-87.78604500040065,41.469834999979874],[-87.78345400040645,41.46983000010628],[-87.78058700022773,41.46981999968484],[-87.7709699997153,41.46978199981924],[-87.75496400034088,41.46975300011938],[-87.7482709999086,41.46973100010634],[-87.74776700011846,41.469729999860824],[-87.74229899989977,41.46972499997909],[-87.73904000008389,41.4697180002787],[-87.73218900036618,41.46971000033168],[-87.7320560002968,41.469710999904436],[-87.72234500007305,41.46973400016974],[-87.71820300035031,41.46973400016974],[-87.71683400019667,41.469754999936626],[-87.71275199985008,41.46975999981604],[-87.70983899964061,41.46976200030614],[-87.70802900034433,41.46974899981164],[-87.70314000025887,41.469784000308714],[-87.70123899982765,41.46976599994001],[-87.70028499977572,41.46976599994001],[-87.69864500035871,41.469767000185016],[-87.67986999981653,41.46977099981857],[-87.6761430001955,41.469775000125004],[-87.67416700031954,41.46977300030838],[-87.67121200027727,41.46976799975685],[-87.6613520000906,41.469757999998954],[-87.6540650003548,41.4697560001818],[-87.65323599997633,41.46975399969148],[-87.64847599976231,41.469757999998954],[-87.64497900029505,41.46976799975685],[-87.6389849996466,41.469780000002835],[-87.63172100037534,41.46980999993492],[-87.63051799990303,41.469806999875],[-87.62041099984417,41.469833000165096],[-87.62021199965254,41.469833000165096],[-87.61922499998863,41.469834999979874],[-87.61613400040224,41.469830999677185],[-87.61600399980759,41.469830999677185],[-87.60889699999683,41.469875000301066],[-87.60795200016572,41.46987299981439],[-87.60666000000496,41.469897000265235],[-87.60269099963627,41.46989600002227],[-87.60148200021453,41.46990399994629],[-87.59141199996557,41.4699440002249],[-87.58672000042193,41.46995899981818],[-87.57760000002698,41.46999299996036],[-87.57733899991109,41.46999199971887],[-87.57710299990953,41.46999299996036],[-87.57404999995796,41.470006999974174],[-87.57306499994387,41.470014000316475],[-87.55784899969154,41.47006600004709],[-87.5557480001421,41.470078999804954],[-87.52570499979988,41.47028300001316],[-87.52568456761873,41.47181578049893],[-87.52563561302901,41.475488287629254],[-87.52558413058009,41.47935037524532],[-87.52553800029361,41.48281099974412],[-87.5255553557449,41.491043201233595],[-87.52556291776295,41.49462995163727],[-87.52556292764443,41.49463446648849],[-87.52557187037308,41.49887606787018],[-87.52559225314687,41.50854388758574],[-87.52561100008853,41.51743599996946],[-87.52557574031533,41.52265109948015],[-87.52556162418895,41.52473883518599],[-87.52553725199698,41.52834352855688],[-87.52540787483314,41.54747896510279],[-87.52540554909486,41.547822967806376],[-87.52539982413155,41.54866970827837],[-87.52539758463155,41.54900093653368],[-87.525388835939,41.55029487698977],[-87.52534501432281,41.55677623877907],[-87.52533983373856,41.557542478310445],[-87.52533099970606,41.558848999847754],[-87.52534065749367,41.56346979983711],[-87.52535450322715,41.57009395589575],[-87.52535488501114,41.5702768936721],[-87.52536916103763,41.57710681573773],[-87.52536920954667,41.577130185762925],[-87.52537216949553,41.57854634767612],[-87.525378051664,41.58136084081753],[-87.52537809388483,41.58138079108245],[-87.52538699978254,41.585642000196636],[-87.52537166015077,41.58744050526699],[-87.52533290323613,41.59198449241979],[-87.52531270102372,41.59435302752786],[-87.52525812028537,41.600752222899445],[-87.52525552954408,41.6010560556631],[-87.52519886201934,41.60769990528019],[-87.52518383230633,41.60946196944862],[-87.52516900022266,41.61120099989523],[-87.5251578422485,41.61383408845764],[-87.52515069345549,41.61552099998718],[-87.52513526489047,41.61916199655419],[-87.52512065918228,41.622608529671005],[-87.52511877541512,41.623053168402656],[-87.52510652508958,41.62594412943819],[-87.52508845727428,41.6302076445251],[-87.52507668485248,41.632985773169814],[-87.52506617097042,41.63546698848695],[-87.52505000039697,41.6392830003333],[-87.52501465797876,41.6446359555156],[-87.52497846844922,41.65011721803694],[-87.5249777210509,41.65023043942641],[-87.52484799983229,41.66987800010046],[-87.5246294001978,41.69180169509704],[-87.52455726727712,41.699035932675734],[-87.52453900003582,41.700868000163],[-87.52444801866385,41.702679348191815],[-87.524164999942,41.7083139997509],[-87.5282270001971,41.71087800027956],[-87.52659899957737,41.71223400027888],[-87.52901800004244,41.71537599985436],[-87.52521500025341,41.71755100026669],[-87.52462199987649,41.72352199985381],[-87.5292549998689,41.732757999979974],[-87.52926696992006,41.73285946915824],[-87.53106099986555,41.74806800013006],[-87.5432650001742,41.751997000074574],[-87.54441881698638,41.754662194148715],[-87.54448799983966,41.75482200033166],[-87.54074899962474,41.75726000033113],[-87.54388199994226,41.759964999726236],[-87.5475170004001,41.758538000256756],[-87.55005410147726,41.7593125398187],[-87.55419599969035,41.76057700002319],[-87.55532519098564,41.761466932820156],[-87.55598773983019,41.76198909804143],[-87.55753075533246,41.76320517231216],[-87.55796814773925,41.763549887499394],[-87.55944861264999,41.76471666475837],[-87.55977568116009,41.764974432393416],[-87.56045282852634,41.76550810234756],[-87.56047300019601,41.76552400021413],[-87.56044220864301,41.766342498833986],[-87.56036299969286,41.768448000274034],[-87.56039925030782,41.7684803017376],[-87.56340903770096,41.771162224580806],[-87.56613774493663,41.77359368546314],[-87.5666879998791,41.77408400003991],[-87.57285999990445,41.77934299968264],[-87.57279087005178,41.77955699045773],[-87.57250691438709,41.78043597544924],[-87.57240744303736,41.780743889653564],[-87.57230500006068,41.78106099970011],[-87.57422400003523,41.78265500006025],[-87.57634700022429,41.7860340001391],[-87.5763992561227,41.78615670472658],[-87.57729305467755,41.78825547269251],[-87.5773604013744,41.7884136118149],[-87.57737451929742,41.78844676256838],[-87.57786740513087,41.78960412999733],[-87.57949800008515,41.79343300021853],[-87.57625500016277,41.795032999789626],[-87.57620805959594,41.79516306884031],[-87.57580099970303,41.79629099974394],[-87.57691605600733,41.796940085281825],[-87.58016099988397,41.79882899972715],[-87.5808168122622,41.80062066793606],[-87.58082311663885,41.80063789308255],[-87.58086524852399,41.80075299714901],[-87.58150911780052,41.80251203529305],[-87.58203561769359,41.803950424612374],[-87.58218699998865,41.80436400022962],[-87.58366704448783,41.80617508431496],[-87.58697638229897,41.81022461530047],[-87.58778639408898,41.81121580245102],[-87.59246279169275,41.81693816201478],[-87.59943063527948,41.82546449257238],[-87.60054900007896,41.82683300015209],[-87.60238817306242,41.830634908634636],[-87.602732637448,41.831346979665625],[-87.60621150711621,41.83853844188114],[-87.60636969504785,41.83886544483168],[-87.60793900334018,41.84210949252214],[-87.60910477583046,41.84451935848901],[-87.60945000019079,41.84523300024582],[-87.6094521229098,41.84524646387068],[-87.61018079494579,41.84986854709304],[-87.61050200015202,41.85190600008873],[-87.60782219899704,41.852778837795974],[-87.60652299973762,41.853201999668606],[-87.60585499991592,41.86684900015902],[-87.61389801460831,41.868461316195706],[-87.6152647186681,41.86873528810873],[-87.61625099967979,41.868932999744985],[-87.61631377934172,41.871888218594],[-87.6163432584561,41.873275940406856],[-87.61650550767114,41.88091353511213],[-87.61653699991005,41.88239600005517],[-87.61317799963673,41.88359599976726],[-87.6131040305596,41.884388981481344],[-87.61298366709133,41.88567932360279],[-87.6127809999767,41.88785199995347],[-87.61380399962563,41.887936000034266],[-87.61378695499141,41.888322541293036],[-87.61368899999789,41.89054400023193],[-87.61317192522878,41.89055495595988],[-87.61151800012826,41.890589999832194],[-87.61139500010462,41.889517999986836],[-87.60954800010009,41.88961200015009],[-87.60964267085292,41.892075519610174],[-87.60968316331267,41.8931291963307],[-87.60968500036743,41.893177000222266],[-87.60226700021205,41.89330199979363],[-87.60236900031931,41.89633500032487],[-87.61009200007322,41.89636699994008],[-87.6103062087426,41.896075306431975],[-87.61204100018499,41.89371300011034],[-87.61409353203159,41.893647796563165],[-87.61421087087231,41.89364406926857],[-87.61427599962873,41.89364200033244],[-87.61588153068826,41.895873503589705],[-87.61653709333483,41.89678466044845],[-87.61793805285136,41.89873183317721],[-87.61893111165185,41.90011207049992],[-87.61985199980244,41.90139200033027],[-87.62121346219253,41.90166851954545],[-87.62264768003581,41.9019598157615],[-87.62294400011206,41.90202000029474],[-87.62305079362967,41.90223320278694],[-87.62342488535164,41.902980035385845],[-87.62379858181488,41.90372607900794],[-87.6240520001498,41.90423199978029],[-87.62413355819444,41.904573505936106],[-87.62448661047415,41.90605182095853],[-87.624714217516,41.90700486988653],[-87.62476259987889,41.90720745920154],[-87.62496181836113,41.908041636882366],[-87.62531643820101,41.90952651541816],[-87.62554199977896,41.9104710002504],[-87.62466255989558,41.91096705248762],[-87.6244750401733,41.91107282430437],[-87.62403828646868,41.91131917729666],[-87.62067899963277,41.91321400006908],[-87.6214359919564,41.91366624267306],[-87.6271150001471,41.917059000169004],[-87.62749585708148,41.91865397620885],[-87.62752539368803,41.918777670597805],[-87.62938074532975,41.9265476189306],[-87.63092473370749,41.93301362544356],[-87.63095300009623,41.93313199989059],[-87.63189824337078,41.93685817695125],[-87.63191547036298,41.93692608684277],[-87.63327690490532,41.942292901333566],[-87.63329899986805,41.94238000031947],[-87.63382870764498,41.943196813459366],[-87.63722400883894,41.948432396856184],[-87.63741898727305,41.94873305441023],[-87.6407379999398,41.95385099979801],[-87.64082984279612,41.954868401773425],[-87.64083219458554,41.95489446112581],[-87.64144599994447,41.96169400000695],[-87.63773799969168,41.962259999721326],[-87.63595435157593,41.961422494919475],[-87.63593199969503,41.96141200023897],[-87.6314800003509,41.96347800018275],[-87.63242000015916,41.96528999998681],[-87.63920200027988,41.966205000328706],[-87.64365178168357,41.96981427525828],[-87.64398291956192,41.970082865303034],[-87.64508294345825,41.970975108833656],[-87.64564499956859,41.97143099997345],[-87.64901955327274,41.97704232309823],[-87.64990699984024,41.978518000002005],[-87.6502942267283,41.97950846335188],[-87.65034406346362,41.97963593694965],[-87.65201286466525,41.98390446160669],[-87.65214163097471,41.98423382304833],[-87.6527429632259,41.98577193546378],[-87.6536455796436,41.988080681971994],[-87.65396045891362,41.98888609141582],[-87.65399599985952,41.98897700001987],[-87.65420164578762,41.99014453437213],[-87.65421162427378,41.99020118246871],[-87.65421692074072,41.99023125281729],[-87.65436750263684,41.9910861663083],[-87.65459382778279,41.99237110252607],[-87.65467120327146,41.99281039418807],[-87.65477448707126,41.993396774439454],[-87.65491061507447,41.99416962595265],[-87.65530821121584,41.99642693455234],[-87.65562615014773,41.998231999978834],[-87.65597770313921,42.000227905836915],[-87.65629599960059,42.002035000300346],[-87.65679537845692,42.003846715541385],[-87.65689859578137,42.00422118322995],[-87.65765600043173,42.00696899984803],[-87.6583262577197,42.00802072575791],[-87.661084000302,42.01234800022674],[-87.66132547284026,42.012861457836685],[-87.66235706667152,42.01505500013841],[-87.66336442126145,42.01719699975145],[-87.66434321840852,42.01927827544481],[-87.66592531511722,42.02264238517026],[-87.66615447983777,42.02312967085572],[-87.66898199995808,42.02914199999563],[-87.66970479341884,42.03381627178534],[-87.67082723746803,42.04107506045045],[-87.67108500005565,42.04274200009388],[-87.6711157538794,42.04281974468035],[-87.67211502183515,42.04534588829325],[-87.67315700019108,42.0479799996713],[-87.6716428709151,42.050842246929065],[-87.67106133393949,42.05194156177808],[-87.67086009514617,42.052321974987265],[-87.6705119997702,42.05297999985385],[-87.67087485985618,42.05502499980529],[-87.6714619996242,42.05833399984812],[-87.67347352068313,42.06154501192542],[-87.67984322912275,42.07171304782989],[-87.68235899970348,42.075728999989224],[-87.681464999926,42.078440999761675],[-87.68556565558607,42.08030607623406],[-87.69097325308505,42.08276558074624],[-87.6945250003773,42.08438100030567],[-87.6997063356124,42.08783217626357],[-87.70143378512398,42.0889827929644],[-87.7022150095024,42.089503149828566],[-87.70266834431052,42.0898051063802],[-87.70658528012196,42.09241409364754],[-87.71094499463862,42.095318004801165],[-87.71096000009715,42.09532800012924],[-87.7122058511068,42.096455458359664],[-87.71702025059949,42.10081234804036],[-87.71716918139212,42.100947125512086],[-87.72460285535256,42.10767438087292],[-87.72466099970764,42.10772700021856],[-87.73059699973145,42.114664999682226],[-87.73193800029601,42.117110999776614],[-87.73616200003451,42.120811000201066],[-87.74111622230114,42.12749109383788],[-87.74166200004022,42.12822700005483],[-87.74168992686579,42.12826538829956],[-87.74956288418669,42.139087505062186],[-87.75016691497699,42.13991780274573],[-87.75480436252836,42.14629240784819],[-87.75914205215089,42.15225496946754],[-87.77164699975783,42.15236000021397],[-87.7723149995795,42.15236200014465],[-87.77757799975879,42.152376000323514],[-87.77940100037219,42.15240200007659],[-87.78952199977644,42.15247299986023],[-87.79385500019319,42.152550000004545],[-87.79605500037513,42.15253599986423],[-87.79866200026287,42.15254899970924],[-87.80914500006536,42.15252699986748],[-87.82107800021237,42.15254100000984],[-87.82442200041706,42.15268999990592],[-87.82844600013902,42.152714999903274],[-87.833499000256,42.152737999972025],[-87.83543800032201,42.152757999822356],[-87.8417090000816,42.1527840000845],[-87.84818300023076,42.152810999961225],[-87.8625340001196,42.15291599981627],[-87.86739999974051,42.15293899981199],[-87.87119500003193,42.152940000101175],[-87.87159900026296,42.152940999724365],[-87.87599999955346,42.152947000127064],[-87.88347700015838,42.15295299986321],[-87.8837109996118,42.15295299986321],[-87.88726800025182,42.15295299986321],[-87.89234899995789,42.15299800019716],[-87.89723999969316,42.153026999892205],[-87.90993100007353,42.153130999768756],[-87.91134899973265,42.15313599986736],[-87.91166099990221,42.15313999967962],[-87.91486000034195,42.153163999879574],[-87.92216999964397,42.15303399990847],[-87.92307000016756,42.15308400028754],[-87.93396399987378,42.153075999989824],[-87.93440499991475,42.153105999935704],[-87.93472100028225,42.153081999713756],[-87.9364079995549,42.15309500011261],[-87.9368579998167,42.153098000306706],[-87.94376200013616,42.1531630002599],[-87.9486510002216,42.15317999978586],[-87.95161200011167,42.153461000102595],[-87.9553389997327,42.1534839999003],[-87.95689799985715,42.15349700021654],[-87.95876099975521,42.15351300003864],[-87.96197400043866,42.1535459999503],[-87.96209499991417,42.15354799984345],[-87.96535399973004,42.15358099973685],[-87.9665899998143,42.15358399990796],[-87.96895099965474,42.15358899997078],[-87.97995700041228,42.153614999891566],[-87.98157099989001,42.15362100023037],[-87.98499399973741,42.15362600029027],[-87.98516699998977,42.15362600029027],[-88.00446600041361,42.153645000247934],[-88.00938200026323,42.15366299992214],[-88.00946000008103,42.15366299992214],[-88.0112669999026,42.15365999975484],[-88.01474500000161,42.15368600031238],[-88.01698199999348,42.153693000255764],[-88.02271600035093,42.153722000298345],[-88.02374999987052,42.15373499989982],[-88.02862499971226,42.15373199973587],[-88.02881399985814,42.15373199973587],[-88.03400400024248,42.15374699988812],[-88.03857100011264,42.15376399992315],[-88.03866900002193,42.15376200003677],[-88.06146400008811,42.15384799975503],[-88.06282700039397,42.1538549996805],[-88.07669299986091,42.15389899976508],[-88.08128499984545,42.15392399995086],[-88.0814299996104,42.15392399995086],[-88.08259700009768,42.153930999867924],[-88.09221999955956,42.15399399975257],[-88.10191999991265,42.15406299987141],[-88.1079360003024,42.154103000060246],[-88.11188499968128,42.15413399978965],[-88.1215449998514,42.15419299972682],[-88.1283539997363,42.154190999854],[-88.13608900008408,42.15421299978329],[-88.14339400026154,42.15422799982155],[-88.15074499957144,42.15421500032139],[-88.15539299963247,42.15423999971639],[-88.17520900026524,42.15423400010224],[-88.19958400037228,42.15425999975806],[-88.21167999982757,42.154264999767484],[-88.23844900028531,42.15424900013547],[-88.23833100028455,42.136366999911274],[-88.23834600035315,42.132288000298345],[-88.23835200020093,42.128753000262634],[-88.23831600021592,42.11400900032896],[-88.23832799991148,42.10886199996807],[-88.23833399975926,42.106615999989764],[-88.23825500011655,42.09286899996065],[-88.23825699976638,42.092348000099456],[-88.23827600003294,42.085120999875336],[-88.23822800035238,42.07408000013115],[-88.23820999991071,42.071525000095704],[-88.23818599962127,42.066984999671604],[-88.24332599977689,42.06705100027178],[-88.24339199989912,42.06705199991658],[-88.2537960000589,42.06704800000348],[-88.25557399956814,42.06693300005978],[-88.25569300029215,42.06692599986506],[-88.2583510002335,42.06692599986506],[-88.26306299986862,42.06687699981455],[-88.26364100017693,42.066872999890435]]]},"properties":{"NAME":"Cook County","COUNTY":"031"}},{"type":"Feature","geometry":{"type":"Polygon","coordinates":[[[-88.60256600002322,41.806847000227414],[-88.60256000017544,41.80660999989789],[-88.60251800034266,41.8046659999004],[-88.60239299977087,41.799825999833885],[-88.60214699972357,41.77462700014045],[-88.60206700025594,41.748608000067314],[-88.60198100004222,41.731084999756774],[-88.60193300036165,41.7195630001393],[-88.59243399985002,41.719684000024856],[-88.56119200013175,41.71995900019747],[-88.55731999984746,41.72003100000683],[-88.54782000040923,41.72018000001731],[-88.53745700025733,41.72038099996104],[-88.536081000431,41.72024599989803],[-88.52758299982696,41.72058699987818],[-88.48967299979078,41.72112099998677],[-88.4891880002672,41.721127999966264],[-88.47252599986834,41.721380999766815],[-88.45160899976884,41.72168599980548],[-88.44915900023994,41.72173000004329],[-88.4438120003951,41.721785999997635],[-88.43457200034955,41.72189099986429],[-88.4240300000975,41.72202000030849],[-88.41807999982998,41.72209199982014],[-88.4105200002827,41.722200000277255],[-88.39962200037853,41.72233300020584],[-88.39887099981783,41.72234099974414],[-88.39884599970347,41.72234099974414],[-88.39487399986008,41.722385000203936],[-88.3812179995571,41.72255199986153],[-88.37923800038148,41.72257599973247],[-88.37898999978604,41.72257999982186],[-88.37887500015832,41.72257999982186],[-88.376361000157,41.722573999687704],[-88.37532000006641,41.7226099998137],[-88.37243600016926,41.722673999838904],[-88.37130999968987,41.722699999705235],[-88.36872799991649,41.72273700011576],[-88.36373400024907,41.72280999984842],[-88.36127200012628,41.72285100026807],[-88.36047000041029,41.72286499984937],[-88.35879800030794,41.72289699974298],[-88.35636799997222,41.72294200017398],[-88.35010999973312,41.723066000110876],[-88.34963299970715,41.72307400022836],[-88.34644599986129,41.72313500008567],[-88.34400800002797,41.7231799996795],[-88.34321600035771,41.72319700023303],[-88.34138299969858,41.723235000034286],[-88.32615300010087,41.7234760001559],[-88.31995000011335,41.72359500003562],[-88.31949499982868,41.72360500009997],[-88.3158789996374,41.723676999847015],[-88.3140829996865,41.72370900000666],[-88.29131699993265,41.724124999961475],[-88.28731800032503,41.72418699982405],[-88.28649899999232,41.72421299974859],[-88.28140499986746,41.72430500006765],[-88.28091299977285,41.72431300003087],[-88.27860299998605,41.72440300021891],[-88.2772820004113,41.724527000018185],[-88.27502100012997,41.724415000145086],[-88.27120699957199,41.724487999982756],[-88.26809800044224,41.72454400021532],[-88.26195200035615,41.72465199990345],[-88.26189200008169,41.732096000191795],[-88.26189399973151,41.73224000001547],[-88.26193700028755,41.73759999976685],[-88.26193100043973,41.739948999987135],[-88.26197999994524,41.74645599976105],[-88.26211999968731,41.76044599974764],[-88.26217300028908,41.76466800032651],[-88.26219000000752,41.765994000262985],[-88.26224699990892,41.77017400030988],[-88.26226100015263,41.77128600010405],[-88.26227200002329,41.77209500015872],[-88.26227399967311,41.772171999747286],[-88.26231600040423,41.77549999990016],[-88.26233899997044,41.7773669996859],[-88.26234599964313,41.77791800011251],[-88.26240699974251,41.78290499969648],[-88.26247000039001,41.7886810002108],[-88.2625470003829,41.791679999892594],[-88.26254900003273,41.791771999990274],[-88.26257999999487,41.79931299980796],[-88.26260099991126,41.799752000111035],[-88.26267299988129,41.80295899982624],[-88.26273200033083,41.80673799981747],[-88.26276999996567,41.80906599985005],[-88.26279000005714,41.81213199992155],[-88.26279000005714,41.81230099972542],[-88.2627940002551,41.81283099979593],[-88.2627869996841,41.81563199990104],[-88.26281599999642,41.82889999974108],[-88.26280500012577,41.830131000208226],[-88.26274999987417,41.836781000119394],[-88.26271100041444,41.84097599980875],[-88.2627099996912,41.84151000016603],[-88.26255200040576,41.85940199970147],[-88.26253899998699,41.86291299986837],[-88.26255200040576,41.8711540003208],[-88.26248700010844,41.88191000020045],[-88.26248899975826,41.882509000210085],[-88.2624849995603,41.88268499987577],[-88.26249200013132,41.88288599968386],[-88.26247799988762,41.884929000268315],[-88.26244699992546,41.89199599998162],[-88.26244600010057,41.892170999873926],[-88.26242299963602,41.897532000088574],[-88.26241000011555,41.899233999689066],[-88.26242600000906,41.903745000029176],[-88.26249700015418,41.91088299980109],[-88.26249799997909,41.91094400019819],[-88.26249799997909,41.91102599980719],[-88.26249899980401,41.91115199996316],[-88.26253499978901,41.91661800024285],[-88.26257400014708,41.921290000058214],[-88.26253099959105,41.92220000016514],[-88.26257900016995,41.928406999894904],[-88.26268399975193,41.93702599995357],[-88.26268399975193,41.9371780000001],[-88.26268999959973,41.938705000202326],[-88.26269200014785,41.94275199982347],[-88.26270600039156,41.95072599971186],[-88.26273200033083,41.962834000006474],[-88.26273200033083,41.963034999981275],[-88.26276699959261,41.968891999841674],[-88.26280400030085,41.97274999993031],[-88.26282199984419,41.97472400014723],[-88.26284100011078,41.97699500007996],[-88.26284799978346,41.977763999777586],[-88.26287899974561,41.97826799985938],[-88.26287600027086,41.98243500019],[-88.26287500044596,41.98637800021031],[-88.26292200030163,41.993616000165474],[-88.26309800002872,42.00502899979517],[-88.26314700043253,42.00896500010388],[-88.26318500006737,42.01194900008699],[-88.26321299965643,42.014123999945944],[-88.26357199968164,42.01541699991862],[-88.26322799972506,42.02279000010804],[-88.26331999978656,42.02663599990377],[-88.26333999987806,42.029093999727316],[-88.26337500003815,42.03381399988935],[-88.26342699991669,42.036549000242864],[-88.26342699991669,42.03658000010655],[-88.26340099997742,42.044882000252905],[-88.26340799965011,42.046409999805036],[-88.26343399958938,42.05044800027181],[-88.26348800001605,42.055034000313164],[-88.26351399995532,42.05683599982747],[-88.26354200044274,42.05865400000401],[-88.26354599974238,42.058979999847],[-88.26364100017693,42.066872999890435],[-88.26306299986862,42.06687699981455],[-88.2583510002335,42.06692599986506],[-88.25569300029215,42.06692599986506],[-88.25557399956814,42.06693300005978],[-88.2537960000589,42.06704800000348],[-88.24339199989912,42.06705199991658],[-88.24332599977689,42.06705100027178],[-88.23818599962127,42.066984999671604],[-88.23820999991071,42.071525000095704],[-88.23822800035238,42.07408000013115],[-88.23827600003294,42.085120999875336],[-88.23825699976638,42.092348000099456],[-88.23825500011655,42.09286899996065],[-88.23833399975926,42.106615999989764],[-88.23832799991148,42.10886199996807],[-88.23831600021592,42.11400900032896],[-88.23835200020093,42.128753000262634],[-88.23834600035315,42.132288000298345],[-88.23833100028455,42.136366999911274],[-88.23844900028531,42.15424900013547],[-88.24783900011869,42.15362699990263],[-88.25040199962548,42.153736999787],[-88.25076700039676,42.153751999938066],[-88.25768900025959,42.15407299992097],[-88.25773399956712,42.15407900021635],[-88.26515199972249,42.153666999701045],[-88.27237800025723,42.153823999814435],[-88.27728400006112,42.153971000140245],[-88.28762600029663,42.15372999984848],[-88.29228799970302,42.15385099991348],[-88.2926590003221,42.153871999686565],[-88.29295600042303,42.15389800015702],[-88.29557199963327,42.15392700010571],[-88.29892000003595,42.15386200027116],[-88.29955900044362,42.15386799992058],[-88.30157899980219,42.15388600019734],[-88.30652300013924,42.153758000263885],[-88.30868099959007,42.15375100032768],[-88.31626500032512,42.153842000103715],[-88.32117000030408,42.15386499976298],[-88.32713700029004,42.15389800015702],[-88.33262200022715,42.15392200006954],[-88.35441600038571,42.15400000005545],[-88.35929000040255,42.15400399981304],[-88.36940300030919,42.15401599975035],[-88.36951799993692,42.15401399987198],[-88.36957099964036,42.15401800029467],[-88.38367399983208,42.15396999986734],[-88.38875299988833,42.15391199999612],[-88.38897999966905,42.15391099972229],[-88.39349999968354,42.15390199992111],[-88.39827499996618,42.153889999962196],[-88.39998899990132,42.15392799971332],[-88.41222599982193,42.15393900005762],[-88.41237599960978,42.15393500029586],[-88.4146729998761,42.15392899998683],[-88.41639799968189,42.15392200006954],[-88.42252399967651,42.15389399972675],[-88.42282099977741,42.15384599987136],[-88.43248699979532,42.15382300020519],[-88.43962700011635,42.153746000277664],[-88.4460240002726,42.153847000146165],[-88.44924299990552,42.15392399995086],[-88.46388400022259,42.15379900025512],[-88.4720580000632,42.1537480001645],[-88.47277500028868,42.15374699988812],[-88.4817809999825,42.15375399982476],[-88.49153300021412,42.15373899967416],[-88.5110469998248,42.15368300014615],[-88.51807900019078,42.15376099976058],[-88.51867699969226,42.153693000255764],[-88.53533300024334,42.15363399985253],[-88.58865700000027,42.1535900002497],[-88.58841799962568,42.12420799988176],[-88.58834400000583,42.110024999817405],[-88.58832999976212,42.066462000006894],[-88.59090099966483,42.06646500030288],[-88.60195799957769,42.06646900025276],[-88.60170900005566,42.04147299987206],[-88.60163600026073,42.0328900000573],[-88.60156000009273,42.017924999900025],[-88.60128899993109,41.981473000101005],[-88.60141199995473,41.97449099982313],[-88.60141100012983,41.971042999748846],[-88.60147399987902,41.959478999701616],[-88.60139900043427,41.95215099977528],[-88.60135199968028,41.92302500015506],[-88.60135199968028,41.91373200000687],[-88.60135099985538,41.910816000108795],[-88.60134500000758,41.90940100007908],[-88.60135599987824,41.906339999738606],[-88.60141799980254,41.89861999974348],[-88.60141899962743,41.89838300020981],[-88.601437999894,41.89400000017875],[-88.6014720002292,41.89116900000716],[-88.60168599959113,41.87332499997429],[-88.60188899998072,41.857063999813086],[-88.60193800038452,41.85036800018678],[-88.60198900043815,41.84605200026189],[-88.6020360002938,41.84245100015778],[-88.60229700040972,41.82111700018239],[-88.60256600002322,41.806847000227414]]]},"properties":{"NAME":"Kane County","COUNTY":"089"}},{"type":"Feature","geometry":{"type":"Polygon","coordinates":[[[-88.26127500031362,41.72465599986361],[-88.26115399993981,41.717184999964495],[-88.26110700008414,41.71422599994125],[-88.26104199978681,41.709485999760766],[-88.26104000013699,41.70943900018363],[-88.26102099987041,41.70893900018637],[-88.26095999977105,41.70521200001481],[-88.2608169996559,41.69666500008298],[-88.26080999998322,41.69584299987674],[-88.25996399988631,41.66108600021327],[-88.25985900030432,41.65793799974475],[-88.25962800032563,41.6507380000742],[-88.25939200032408,41.64346500003622],[-88.2591959996072,41.63825400014845],[-88.25912000033752,41.63620000026256],[-88.25854600022717,41.622645999975354],[-88.25834899968537,41.61814799970705],[-88.25834200001266,41.61796999996263],[-88.25785599976587,41.607714999904786],[-88.25727400015789,41.5934690000197],[-88.25697799988188,41.58696999972012],[-88.25695500031566,41.58632699993903],[-88.25656799980307,41.5787430001411],[-88.25655699993241,41.57857099999305],[-88.25622999969427,41.571052000231404],[-88.25599500041594,41.56453400017835],[-88.25573000010206,41.55836999989075],[-88.2554229999554,41.55168799988521],[-88.25538699997038,41.55073900022293],[-88.25534799961234,41.55008900032608],[-88.25529099971092,41.549516999689764],[-88.25494099990655,41.54013800028429],[-88.25475000011085,41.53517700023443],[-88.25450300023864,41.52799799987386],[-88.25430400004703,41.52098699984682],[-88.2542899998033,41.52072099984727],[-88.25405899982462,41.5140429998511],[-88.25377000011963,41.506248999686605],[-88.25296000000772,41.4845799997326],[-88.25270200026485,41.47659700030675],[-88.25267899980032,41.47583300020878],[-88.25255999997465,41.473689000274334],[-88.25223100008667,41.46306600002617],[-88.2522190003911,41.46275299996375],[-88.25196599977279,41.4556630003333],[-88.25167299986984,41.44810300013401],[-88.25163900043296,41.447364000214264],[-88.2513110003699,41.43772899983508],[-88.25124400042274,41.43497699981385],[-88.2511919996459,41.4338400003125],[-88.25112300004893,41.43122099972146],[-88.25099300035258,41.42839000025794],[-88.25094599959861,41.426314999685],[-88.25092300003239,41.4255129997227],[-88.25089799991802,41.42460100021558],[-88.25082400029818,41.422451999794745],[-88.25070999959706,41.41910000014744],[-88.25044000015862,41.41345199983021],[-88.25013700020993,41.40558000029768],[-88.25010500042288,41.4046759997066],[-88.2501000004,41.404547000217946],[-88.24966299965868,41.390450999830136],[-88.24960699958218,41.388500000155176],[-88.24958300019107,41.387571999994556],[-88.24951399969578,41.38534499993037],[-88.24922800036381,41.37674300011953],[-88.24918800018085,41.375691000255394],[-88.24846299955944,41.3467419997007],[-88.24802200041678,41.33219799985987],[-88.24737999963605,41.30318299980199],[-88.24722200035062,41.296524000030445],[-88.247207000282,41.29584100033535],[-88.24711199984745,41.29234200021736],[-88.24710000015187,41.29196400007588],[-88.247087999558,41.291443000074686],[-88.24699300002176,41.288578999771346],[-88.2467560001953,41.280830999975045],[-88.24664099966925,41.27778899986956],[-88.24661700027812,41.27685800011397],[-88.24652600004154,41.27423700004285],[-88.24652500021661,41.274118000008684],[-88.24648599985856,41.27259200012117],[-88.24631000013147,41.267521999839445],[-88.24617600023717,41.263284000176675],[-88.24605400003843,41.25948400033354],[-88.24587999996116,41.25591399979665],[-88.24566300022617,41.24882999984184],[-88.245560000294,41.24533400022136],[-88.24553299963152,41.24458600032718],[-88.24532400029247,41.23809599967608],[-88.24508499991786,41.23062900002345],[-88.24485499976409,41.22329500023346],[-88.24485300011426,41.22324400032995],[-88.24474400033432,41.21953900003084],[-88.24463100035642,41.21607900002852],[-88.2441440002847,41.201565999910564],[-88.2056199999552,41.20224099997808],[-88.18653200031687,41.20264500016152],[-88.1288950002347,41.203887999878454],[-88.01181000005082,41.20550800007123],[-88.01189100024168,41.208190999746385],[-88.01200900024244,41.21280800006795],[-88.0134069998101,41.27067400007097],[-88.01391899999618,41.29244700028042],[-88.0043879996975,41.29257700028507],[-87.99468200039495,41.29271300031378],[-87.90034899972122,41.29429499991537],[-87.8972990001427,41.29434300032155],[-87.84253500008704,41.29510100033706],[-87.83084799998733,41.295233999802726],[-87.83048899996213,41.295239999853464],[-87.80397899997047,41.295598000079636],[-87.78468000044496,41.29581799989995],[-87.78166199975517,41.29586299986386],[-87.74253699955115,41.29618899979992],[-87.70791999966606,41.296468000188256],[-87.66938000034135,41.29677799981999],[-87.66480599990017,41.29682299979646],[-87.62379799970658,41.29716299981516],[-87.57293600007245,41.29760399982727],[-87.52672886632304,41.29805200223926],[-87.52672900017203,41.298174999878896],[-87.52652064492501,41.3415869068398],[-87.52648807560608,41.34837299982317],[-87.52647599955371,41.350889000014035],[-87.5262297803175,41.38528991215829],[-87.52612931093948,41.39932700239948],[-87.52608499974147,41.405517999855405],[-87.52592942950058,41.426184191535285],[-87.52592328771897,41.42700011504541],[-87.52585866022248,41.43558535092449],[-87.52585865303595,41.435586266166325],[-87.52578199979277,41.445769000220004],[-87.52575710028971,41.45369608133123],[-87.52573017778064,41.46226737447],[-87.52572284393467,41.46460216281255],[-87.52570499979988,41.47028300001316],[-87.5557480001421,41.470078999804954],[-87.55784899969154,41.47006600004709],[-87.57306499994387,41.470014000316475],[-87.57404999995796,41.470006999974174],[-87.57710299990953,41.46999299996036],[-87.57733899991109,41.46999199971887],[-87.57760000002698,41.46999299996036],[-87.58672000042193,41.46995899981818],[-87.59141199996557,41.4699440002249],[-87.60148200021453,41.46990399994629],[-87.60269099963627,41.46989600002227],[-87.60666000000496,41.469897000265235],[-87.60795200016572,41.46987299981439],[-87.60889699999683,41.469875000301066],[-87.61600399980759,41.469830999677185],[-87.61613400040224,41.469830999677185],[-87.61922499998863,41.469834999979874],[-87.62021199965254,41.469833000165096],[-87.62041099984417,41.469833000165096],[-87.63051799990303,41.469806999875],[-87.63172100037534,41.46980999993492],[-87.6389849996466,41.469780000002835],[-87.64497900029505,41.46976799975685],[-87.64847599976231,41.469757999998954],[-87.65323599997633,41.46975399969148],[-87.6540650003548,41.4697560001818],[-87.6613520000906,41.469757999998954],[-87.67121200027727,41.46976799975685],[-87.67416700031954,41.46977300030838],[-87.6761430001955,41.469775000125004],[-87.67986999981653,41.46977099981857],[-87.69864500035871,41.469767000185016],[-87.70028499977572,41.46976599994001],[-87.70123899982765,41.46976599994001],[-87.70314000025887,41.469784000308714],[-87.70802900034433,41.46974899981164],[-87.70983899964061,41.46976200030614],[-87.71275199985008,41.46975999981604],[-87.71683400019667,41.469754999936626],[-87.71820300035031,41.46973400016974],[-87.72234500007305,41.46973400016974],[-87.7320560002968,41.469710999904436],[-87.73218900036618,41.46971000033168],[-87.73904000008389,41.4697180002787],[-87.74229899989977,41.46972499997909],[-87.74776700011846,41.469729999860824],[-87.7482709999086,41.46973100010634],[-87.75496400034088,41.46975300011938],[-87.7709699997153,41.46978199981924],[-87.78058700022773,41.46981999968484],[-87.78345400040645,41.46983000010628],[-87.78604500040065,41.469834999979874],[-87.78730200040131,41.46983900028235],[-87.79030299957603,41.46984599996967],[-87.79029699972824,41.48611300000377],[-87.79031000014702,41.49178200016788],[-87.79031299962176,41.492140000243914],[-87.79031699981971,41.49903600000342],[-87.79030599994907,41.50624800000471],[-87.79031900036786,41.50642799968194],[-87.7904139999041,41.510313999815345],[-87.79041300007918,41.51129099973694],[-87.79041599955393,41.513509999955744],[-87.79039899983549,41.520854999776354],[-87.79040800005633,41.528040999984114],[-87.79040800005633,41.52815999998384],[-87.79040200020853,41.53547000005657],[-87.79044300021643,41.53959300006618],[-87.7921320000372,41.53830900002024],[-87.79229000022096,41.543734000114895],[-87.7927930001862,41.558540000288914],[-87.81226199959104,41.558290999850094],[-87.81714400000378,41.558215999934866],[-87.81794300024504,41.55820399994035],[-87.82556300006677,41.558124000144],[-87.83172500004639,41.5580249999817],[-87.84195099993094,41.55786199983223],[-87.85349099971755,41.55765400026512],[-87.85395699987286,41.55764500019119],[-87.85618499964392,41.5576059998563],[-87.86078699967418,41.55752199972725],[-87.86103000024676,41.55751800013451],[-87.87078599977802,41.5573399998574],[-87.89020099965447,41.557125999857156],[-87.90226600004596,41.55682899970667],[-87.90467799994002,41.55693000017128],[-87.90937700005466,41.55681899994493],[-87.90944800019976,41.56019099981549],[-87.90943700032912,41.56080199987668],[-87.90990000011138,41.57755800014147],[-87.9102959999465,41.58876500024895],[-87.91034000032744,41.590506000082875],[-87.91041099957424,41.59273200019917],[-87.91048799956714,41.596706000310085],[-87.9103450003503,41.59817500016976],[-87.91046099980296,41.600301999954006],[-87.91078800004111,41.607578999715116],[-87.9109989999283,41.61489900023782],[-87.91116100031,41.6195350001355],[-87.91150400044168,41.62832799985062],[-87.91154000042668,41.62940900001106],[-87.91163599978785,41.63306200021028],[-87.91174299991798,41.6367090000941],[-87.91184900022317,41.64006500013439],[-87.91193000041402,41.643932999857576],[-87.92177299998393,41.64373300020065],[-87.93145400007045,41.64353499974086],[-87.94116699994399,41.64332100007864],[-87.95059500031053,41.64310300004327],[-87.95077799971031,41.643098999709316],[-87.95907200009982,41.64291200009902],[-87.96277100013177,41.64282800016921],[-87.97981699977188,41.64254799983611],[-87.99923099982345,41.64201899981095],[-88.00259799959437,41.64195300020738],[-88.00527399997738,41.64191100030245],[-88.0069500002777,41.64188100025766],[-88.01848300039161,41.641671999826634],[-88.01859299999647,41.64166899967737],[-88.02768800027705,41.641505999862105],[-88.0278110003007,41.64514699992107],[-88.02792799957825,41.64877000006176],[-88.0280010002715,41.651450000046424],[-88.02800299992133,41.65151999980169],[-88.02810900022654,41.65515199987135],[-88.02813299961767,41.65598400027847],[-88.02813599999071,41.656097999985924],[-88.02813799964055,41.65616499991409],[-88.02835400044891,41.66353400010225],[-88.02842499969572,41.66495400020963],[-88.02848599979508,41.667455000018904],[-88.02851199973436,41.66851499979303],[-88.0285569999402,41.669915000044185],[-88.02856100013815,41.670101999779185],[-88.0285650003361,41.670285000325244],[-88.02863999978086,41.6725499997674],[-88.0286769995908,41.674428000263106],[-88.0289729998668,41.68524199986988],[-88.02915399961678,41.691032999720086],[-88.0294220003037,41.69965799969706],[-88.02946999998426,41.701309000193156],[-88.02958100031235,41.70486699976012],[-88.02958600033521,41.70504500023348],[-88.02963700038883,41.70670699984601],[-88.0296630003281,41.70749799976404],[-88.02984499990299,41.71369799983073],[-88.02986499999447,41.71434600000155],[-88.02999100039118,41.71798300001894],[-88.03013500033121,41.72214600007136],[-88.030281999746,41.726719999710916],[-88.03035200006619,41.728894000077545],[-88.03445299978104,41.72879400022111],[-88.03514999991503,41.728784999884475],[-88.04001200023629,41.72867400032201],[-88.04967700042928,41.72847300017326],[-88.05056600018392,41.72848600027527],[-88.05452499960853,41.72835200007732],[-88.05616300027401,41.72831299968202],[-88.05707200012012,41.72829099980954],[-88.05816500008925,41.72826700006203],[-88.06336700016914,41.72814699984898],[-88.06354799991911,41.72813999996371],[-88.06357999970615,41.72813899969272],[-88.06903500040434,41.72800899986317],[-88.06919900043589,41.728003999838705],[-88.09794300004636,41.72726599986864],[-88.09818999991856,41.727263999969864],[-88.10278299972799,41.72716400025792],[-88.11115199956227,41.72697300028845],[-88.11729299962549,41.726848000225694],[-88.12936499968967,41.72657499995632],[-88.13085000019427,41.726539000040525],[-88.13161900029829,41.72651999977886],[-88.14819399976021,41.726116999821315],[-88.15060499982935,41.72607200027304],[-88.15489499969009,41.72599999985759],[-88.15555400018926,41.72599099979999],[-88.15607499969786,41.725983999679805],[-88.16343299957876,41.72585200024005],[-88.16752400014619,41.72578699972043],[-88.17323699968892,41.72571000012343],[-88.17726899980678,41.72564799971915],[-88.18697199963462,41.72550500018056],[-88.20010999990375,41.725325999728234],[-88.20511399961691,41.725302999858684],[-88.20603800042994,41.72525500013358],[-88.20629799982261,41.72525100021077],[-88.22497799993026,41.72501900023723],[-88.22567500006426,41.725010000042154],[-88.23553799972565,41.724923999977406],[-88.23565800027457,41.724929000241566],[-88.2364280002035,41.72491600009027],[-88.23851500040755,41.72488399986128],[-88.24489599977198,41.724814999753264],[-88.25476699982929,41.72472900009793],[-88.26127500031362,41.72465599986361]]]},"properties":{"NAME":"Will County","COUNTY":"197"}},{"type":"Feature","geometry":{"type":"Polygon","coordinates":[[[-88.19955099986198,42.18325399973937],[-88.19975900027445,42.1687239997608],[-88.1994539997776,42.161029000127606],[-88.19958400037228,42.15425999975806],[-88.17520900026524,42.15423400010224],[-88.15539299963247,42.15423999971639],[-88.15074499957144,42.15421500032139],[-88.14339400026154,42.15422799982155],[-88.13608900008408,42.15421299978329],[-88.1283539997363,42.154190999854],[-88.1215449998514,42.15419299972682],[-88.11188499968128,42.15413399978965],[-88.1079360003024,42.154103000060246],[-88.10191999991265,42.15406299987141],[-88.09221999955956,42.15399399975257],[-88.08259700009768,42.153930999867924],[-88.0814299996104,42.15392399995086],[-88.08128499984545,42.15392399995086],[-88.07669299986091,42.15389899976508],[-88.06282700039397,42.1538549996805],[-88.06146400008811,42.15384799975503],[-88.03866900002193,42.15376200003677],[-88.03857100011264,42.15376399992315],[-88.03400400024248,42.15374699988812],[-88.02881399985814,42.15373199973587],[-88.02862499971226,42.15373199973587],[-88.02374999987052,42.15373499989982],[-88.02271600035093,42.153722000298345],[-88.01698199999348,42.153693000255764],[-88.01474500000161,42.15368600031238],[-88.0112669999026,42.15365999975484],[-88.00946000008103,42.15366299992214],[-88.00938200026323,42.15366299992214],[-88.00446600041361,42.153645000247934],[-87.98516699998977,42.15362600029027],[-87.98499399973741,42.15362600029027],[-87.98157099989001,42.15362100023037],[-87.97995700041228,42.153614999891566],[-87.96895099965474,42.15358899997078],[-87.9665899998143,42.15358399990796],[-87.96535399973004,42.15358099973685],[-87.96209499991417,42.15354799984345],[-87.96197400043866,42.1535459999503],[-87.95876099975521,42.15351300003864],[-87.95689799985715,42.15349700021654],[-87.9553389997327,42.1534839999003],[-87.95161200011167,42.153461000102595],[-87.9486510002216,42.15317999978586],[-87.94376200013616,42.1531630002599],[-87.9368579998167,42.153098000306706],[-87.9364079995549,42.15309500011261],[-87.93472100028225,42.153081999713756],[-87.93440499991475,42.153105999935704],[-87.93396399987378,42.153075999989824],[-87.92307000016756,42.15308400028754],[-87.92216999964397,42.15303399990847],[-87.91486000034195,42.153163999879574],[-87.91166099990221,42.15313999967962],[-87.91134899973265,42.15313599986736],[-87.90993100007353,42.153130999768756],[-87.89723999969316,42.153026999892205],[-87.89234899995789,42.15299800019716],[-87.88726800025182,42.15295299986321],[-87.8837109996118,42.15295299986321],[-87.88347700015838,42.15295299986321],[-87.87599999955346,42.152947000127064],[-87.87159900026296,42.152940999724365],[-87.87119500003193,42.152940000101175],[-87.86739999974051,42.15293899981199],[-87.8625340001196,42.15291599981627],[-87.84818300023076,42.152810999961225],[-87.8417090000816,42.1527840000845],[-87.83543800032201,42.152757999822356],[-87.833499000256,42.152737999972025],[-87.82844600013902,42.152714999903274],[-87.82442200041706,42.15268999990592],[-87.82107800021237,42.15254100000984],[-87.80914500006536,42.15252699986748],[-87.79866200026287,42.15254899970924],[-87.79605500037513,42.15253599986423],[-87.79385500019319,42.152550000004545],[-87.78952199977644,42.15247299986023],[-87.77940100037219,42.15240200007659],[-87.77757799975879,42.152376000323514],[-87.7723149995795,42.15236200014465],[-87.77164699975783,42.15236000021397],[-87.75914205215089,42.15225496946754],[-87.76134999972817,42.155290000018866],[-87.76802460176512,42.1658652851271],[-87.76820712326118,42.166154472789444],[-87.76856066242775,42.166714623142234],[-87.76880200021874,42.16709700016904],[-87.7770019999986,42.17608100030025],[-87.77863209818452,42.1782608183008],[-87.78406783990134,42.18552966400401],[-87.78732134831588,42.18988035748409],[-87.79178912926294,42.1958548149456],[-87.79589999966612,42.201351999869715],[-87.79683799982455,42.20366899972987],[-87.79689064918503,42.2037424060886],[-87.80176461237093,42.21053791113475],[-87.80177399976566,42.210551000195586],[-87.80179168759359,42.210589972605476],[-87.80288448095021,42.21299779917944],[-87.80503712734027,42.21774087403168],[-87.80723214816061,42.222577312829316],[-87.80741400041178,42.222977999864916],[-87.80833180195104,42.22420307900067],[-87.81151500012663,42.22845200009128],[-87.8115472298824,42.22859647623219],[-87.81197302683549,42.23050520183612],[-87.8122669996139,42.231822999943866],[-87.81515779885946,42.239704196667546],[-87.8161297140131,42.2423539347438],[-87.8164815077531,42.243313031515086],[-87.81958900040811,42.25178499972713],[-87.82571100020478,42.2624029997499],[-87.82804673762277,42.26854799986567],[-87.82856900016266,42.26992200019858],[-87.83273848384151,42.291172915644104],[-87.83346809821022,42.29489159888505],[-87.83383412306092,42.29675714159907],[-87.8345899188286,42.300609263363796],[-87.83476899977711,42.30152200018309],[-87.83361575429346,42.30482713590538],[-87.83283700028208,42.30705900015683],[-87.83284599511303,42.3078649660153],[-87.83285700037358,42.30885100001427],[-87.83275692984755,42.30896270409764],[-87.83179899966623,42.310032000281055],[-87.83039100005284,42.31225300017113],[-87.83096000014032,42.317302000075834],[-87.83146988209897,42.32148847023359],[-87.83176699987918,42.32392799968497],[-87.83192863823983,42.32694115704642],[-87.83200399970565,42.32834600018326],[-87.83081799985008,42.33132599971524],[-87.82719599981107,42.33743400000523],[-87.82690913989308,42.34122833108175],[-87.8267258656088,42.34365251376763],[-87.82644835894955,42.347323124232084],[-87.82583099985536,42.35548899994193],[-87.82401300016315,42.356908999668846],[-87.82401086127446,42.35701217928813],[-87.82400998541706,42.35705445597849],[-87.82395272680085,42.359817334378064],[-87.82395155180446,42.359874024705306],[-87.8239179997286,42.36149299971346],[-87.82386327705643,42.36186032446064],[-87.82351799969551,42.36417799969734],[-87.82301899992824,42.364494000264045],[-87.82219700012075,42.36451900006252],[-87.82175899955452,42.36432799975702],[-87.82178299984398,42.362632999680486],[-87.82068999987484,42.36150899995159],[-87.81680400024516,42.36158600016947],[-87.81591299994238,42.36419599977653],[-87.81562699971212,42.36672499979055],[-87.81500900011915,42.36935899996392],[-87.81227599983474,42.374188000117],[-87.8099710000708,42.377401000227934],[-87.8074510002217,42.38256299997514],[-87.80581199973132,42.38366299969741],[-87.80547717876031,42.38455712527004],[-87.80326000009518,42.390477999978785],[-87.80328510171915,42.391878188352266],[-87.80367798799351,42.41379381233843],[-87.803784322472,42.41972527351555],[-87.80379900004542,42.42054399998899],[-87.80400731037666,42.423383725158345],[-87.80458200039315,42.431217999986075],[-87.80380068708153,42.43546506111906],[-87.80321900008728,42.43862699990304],[-87.80194894576894,42.44205502797919],[-87.80083599960722,42.445059000060056],[-87.80035428612095,42.449704012267865],[-87.80000952439302,42.4530284391301],[-87.79982394952332,42.45481787587445],[-87.79885728771742,42.46413907985617],[-87.79859533898058,42.46666497256786],[-87.79809574902015,42.471482354079676],[-87.79807100043406,42.47172099971949],[-87.80047099973424,42.47819700030755],[-87.79937100009244,42.484021999951494],[-87.80209099995805,42.49257600012907],[-87.80381499993896,42.49257900007579],[-87.81660180384775,42.49275524553384],[-87.82191227909145,42.49282844159831],[-87.8252445266373,42.49287437125045],[-87.84461776742945,42.493141400439775],[-87.84658175323682,42.49316847058564],[-87.84785177341921,42.49318597595802],[-87.85286781325213,42.49325511378521],[-87.85286858310832,42.49325512438325],[-87.86256785852098,42.493388813506456],[-87.87368819954283,42.49354208880229],[-87.88299451232433,42.49367036173809],[-87.88679997978544,42.49372281383127],[-87.89799116374722,42.49387706597016],[-87.90010310208187,42.49390617590352],[-87.90035260286383,42.49390961493911],[-87.91745769009006,42.49414538051185],[-87.95103115663548,42.49460813663469],[-87.95849399979151,42.49471099978683],[-87.9715821633253,42.49479817007712],[-87.99040411611244,42.494923529358914],[-88.00314467115714,42.49500838440356],[-88.02504972464439,42.49515427705326],[-88.04978200001128,42.49531900017727],[-88.06206335604567,42.495487744026526],[-88.06893635460638,42.49558217727412],[-88.0777187241001,42.49570284552516],[-88.09420784462084,42.49592940362594],[-88.10098846852257,42.49602256780708],[-88.10147136419177,42.496029203225326],[-88.10221222367119,42.49603938221249],[-88.10850616730143,42.49612585982171],[-88.10958134200038,42.49614063284166],[-88.11152635538893,42.49616735660595],[-88.11528499996248,42.49621899986566],[-88.11811433198471,42.49621223398505],[-88.12383642427477,42.496198549881726],[-88.13847233833067,42.49616354942899],[-88.15014441471858,42.49613563674765],[-88.1768707452003,42.49607172274077],[-88.18709572280207,42.49604727079394],[-88.19848217894706,42.49602004094322],[-88.1985781019514,42.4960198117702],[-88.1993911159111,42.49601786711162],[-88.19939400040147,42.49270299995558],[-88.19940100007418,42.488032000011295],[-88.19921199992828,42.4808970000179],[-88.1991509998289,42.473474999790824],[-88.19908899990463,42.46634099967045],[-88.1989819997745,42.46259800031572],[-88.1988810003905,42.45905400010383],[-88.19887499964437,42.455473999966514],[-88.19886499959864,42.45185799973181],[-88.19884700005531,42.44462999993689],[-88.19874400012314,42.44237499987079],[-88.198713000161,42.44101200005535],[-88.1987549999938,42.43578699993396],[-88.19874199957499,42.43182900020888],[-88.19872599968147,42.43006700009426],[-88.19870399994016,42.42747599991341],[-88.19870399994016,42.423971999973034],[-88.19868100037394,42.421900999972266],[-88.19865399971145,42.42001899971544],[-88.198601000008,42.41556699977189],[-88.19882000029112,42.41557000009367],[-88.19881899956789,42.41485699982615],[-88.19881600009316,42.41093699997491],[-88.19881400044335,42.40843899987495],[-88.19880799969722,42.40121199982721],[-88.19880400039759,42.39664199988807],[-88.19868499967359,42.38720499984554],[-88.19866200010738,42.385027000216574],[-88.19861299970357,42.37991099990281],[-88.1985309996878,42.37242199995525],[-88.19849600042602,42.36499499990242],[-88.1984539996949,42.357962000289604],[-88.1985010004489,42.35058099969551],[-88.19849800007583,42.34873799985433],[-88.1984880000301,42.34315299989787],[-88.19859799963494,42.33702099989089],[-88.19864700003875,42.328861000017646],[-88.19874999997091,42.32861099987025],[-88.19882899961364,42.32103300009771],[-88.19902399960729,42.317739999950874],[-88.19880799969722,42.31393999979563],[-88.1988549995529,42.30632699996909],[-88.19881699991807,42.30320199973499],[-88.1987909999788,42.3011549999214],[-88.19878900032897,42.30099200007144],[-88.19875300034397,42.29813899984694],[-88.198713000161,42.2955259999899],[-88.1986000001831,42.29227199999518],[-88.19855900017521,42.28863300019274],[-88.19856199964994,42.28501800014582],[-88.19854999995438,42.2845859997449],[-88.19846999958843,42.27765499999487],[-88.19848499965704,42.2744340000112],[-88.1985010004489,42.27396499983532],[-88.1984810003574,42.27302700031322],[-88.19846200009081,42.27228500007826],[-88.19842899958056,42.269799000059834],[-88.19843199995361,42.26912699966864],[-88.19837699970202,42.25964499974809],[-88.19831999980062,42.256135000194405],[-88.19831999980062,42.25562599973934],[-88.19829899988422,42.24883399999052],[-88.19827399976985,42.24548999993429],[-88.19824500035585,42.24155900026528],[-88.19849399987787,42.241561000035176],[-88.19877699973509,42.23701300025597],[-88.19883100016176,42.23665399970003],[-88.19904200004896,42.23604400021177],[-88.19917500011834,42.21977500031428],[-88.19933599977685,42.208873000000885],[-88.19937799960964,42.202965999748706],[-88.19943100021139,42.197722999753516],[-88.19946100034862,42.1941799996704],[-88.1994670001964,42.193402000317526],[-88.19947899989198,42.19187799971438],[-88.19949099958754,42.190471999791754],[-88.19951099967902,42.18802700009725],[-88.19951200040225,42.18783699967816],[-88.1995170004251,42.187398999997576],[-88.19955099986198,42.18325399973937]]]},"properties":{"NAME":"Lake County","COUNTY":"097"}},{"type":"Feature","geometry":{"type":"Polygon","coordinates":[[[-88.26287600027086,41.98243500019],[-88.26287899974561,41.97826799985938],[-88.26284799978346,41.977763999777586],[-88.26284100011078,41.97699500007996],[-88.26282199984419,41.97472400014723],[-88.26280400030085,41.97274999993031],[-88.26276699959261,41.968891999841674],[-88.26273200033083,41.963034999981275],[-88.26273200033083,41.962834000006474],[-88.26270600039156,41.95072599971186],[-88.26269200014785,41.94275199982347],[-88.26268999959973,41.938705000202326],[-88.26268399975193,41.9371780000001],[-88.26268399975193,41.93702599995357],[-88.26257900016995,41.928406999894904],[-88.26253099959105,41.92220000016514],[-88.26257400014708,41.921290000058214],[-88.26253499978901,41.91661800024285],[-88.26249899980401,41.91115199996316],[-88.26249799997909,41.91102599980719],[-88.26249799997909,41.91094400019819],[-88.26249700015418,41.91088299980109],[-88.26242600000906,41.903745000029176],[-88.26241000011555,41.899233999689066],[-88.26242299963602,41.897532000088574],[-88.26244600010057,41.892170999873926],[-88.26244699992546,41.89199599998162],[-88.26247799988762,41.884929000268315],[-88.26249200013132,41.88288599968386],[-88.2624849995603,41.88268499987577],[-88.26248899975826,41.882509000210085],[-88.26248700010844,41.88191000020045],[-88.26255200040576,41.8711540003208],[-88.26253899998699,41.86291299986837],[-88.26255200040576,41.85940199970147],[-88.2627099996912,41.84151000016603],[-88.26271100041444,41.84097599980875],[-88.26274999987417,41.836781000119394],[-88.26280500012577,41.830131000208226],[-88.26281599999642,41.82889999974108],[-88.2627869996841,41.81563199990104],[-88.2627940002551,41.81283099979593],[-88.26279000005714,41.81230099972542],[-88.26279000005714,41.81213199992155],[-88.26276999996567,41.80906599985005],[-88.26273200033083,41.80673799981747],[-88.26267299988129,41.80295899982624],[-88.26260099991126,41.799752000111035],[-88.26257999999487,41.79931299980796],[-88.26254900003273,41.791771999990274],[-88.2625470003829,41.791679999892594],[-88.26247000039001,41.7886810002108],[-88.26240699974251,41.78290499969648],[-88.26234599964313,41.77791800011251],[-88.26233899997044,41.7773669996859],[-88.26231600040423,41.77549999990016],[-88.26227399967311,41.772171999747286],[-88.26227200002329,41.77209500015872],[-88.26226100015263,41.77128600010405],[-88.26224699990892,41.77017400030988],[-88.26219000000752,41.765994000262985],[-88.26217300028908,41.76466800032651],[-88.26211999968731,41.76044599974764],[-88.26197999994524,41.74645599976105],[-88.26193100043973,41.739948999987135],[-88.26193700028755,41.73759999976685],[-88.26189399973151,41.73224000001547],[-88.26189200008169,41.732096000191795],[-88.26195200035615,41.72465199990345],[-88.26127500031362,41.72465599986361],[-88.25476699982929,41.72472900009793],[-88.24489599977198,41.724814999753264],[-88.23851500040755,41.72488399986128],[-88.2364280002035,41.72491600009027],[-88.23565800027457,41.724929000241566],[-88.23553799972565,41.724923999977406],[-88.22567500006426,41.725010000042154],[-88.22497799993026,41.72501900023723],[-88.20629799982261,41.72525100021077],[-88.20603800042994,41.72525500013358],[-88.20511399961691,41.725302999858684],[-88.20010999990375,41.725325999728234],[-88.18697199963462,41.72550500018056],[-88.17726899980678,41.72564799971915],[-88.17323699968892,41.72571000012343],[-88.16752400014619,41.72578699972043],[-88.16343299957876,41.72585200024005],[-88.15607499969786,41.725983999679805],[-88.15555400018926,41.72599099979999],[-88.15489499969009,41.72599999985759],[-88.15060499982935,41.72607200027304],[-88.14819399976021,41.726116999821315],[-88.13161900029829,41.72651999977886],[-88.13085000019427,41.726539000040525],[-88.12936499968967,41.72657499995632],[-88.11729299962549,41.726848000225694],[-88.11115199956227,41.72697300028845],[-88.10278299972799,41.72716400025792],[-88.09818999991856,41.727263999969864],[-88.09794300004636,41.72726599986864],[-88.06919900043589,41.728003999838705],[-88.06903500040434,41.72800899986317],[-88.06357999970615,41.72813899969272],[-88.06354799991911,41.72813999996371],[-88.06336700016914,41.72814699984898],[-88.05816500008925,41.72826700006203],[-88.05707200012012,41.72829099980954],[-88.05616300027401,41.72831299968202],[-88.05452499960853,41.72835200007732],[-88.05056600018392,41.72848600027527],[-88.04967700042928,41.72847300017326],[-88.04001200023629,41.72867400032201],[-88.03514999991503,41.728784999884475],[-88.03445299978104,41.72879400022111],[-88.03035200006619,41.728894000077545],[-88.030281999746,41.726719999710916],[-88.03013500033121,41.72214600007136],[-88.02999100039118,41.71798300001894],[-88.02986499999447,41.71434600000155],[-88.02984499990299,41.71369799983073],[-88.0296630003281,41.70749799976404],[-88.02963700038883,41.70670699984601],[-88.02958600033521,41.70504500023348],[-88.02958100031235,41.70486699976012],[-88.02946999998426,41.701309000193156],[-88.0294220003037,41.69965799969706],[-88.02915399961678,41.691032999720086],[-88.0289729998668,41.68524199986988],[-88.02043400015322,41.6853799997742],[-88.01372700037555,41.685483000214816],[-88.0129630002944,41.685495000027466],[-88.01245100010833,41.685554999727955],[-88.01108100012978,41.6854880001929],[-88.00494099989145,41.68565200033298],[-88.00445499964465,41.6856659999656],[-88.00233900002658,41.68571499999748],[-88.00096900004803,41.68570300022587],[-87.9993470001744,41.68573100013671],[-87.98966699991279,41.68591000016538],[-87.98716600033028,41.68596599979475],[-87.98215199967306,41.686078000248955],[-87.981430000323,41.68677099998179],[-87.98090700026627,41.68703399988091],[-87.97941500008898,41.68732199989931],[-87.97543300019981,41.686543999877806],[-87.97178699987133,41.687246000075575],[-87.9666740003782,41.68674200027909],[-87.95843299969215,41.69102999985766],[-87.95539700035734,41.693122999785636],[-87.95354199995688,41.693479000191196],[-87.94784500030765,41.695131999900745],[-87.94512999956659,41.69707099985193],[-87.94221800008033,41.699101999877264],[-87.94225200041552,41.699613999775515],[-87.94214199991235,41.70059300013568],[-87.9420890002089,41.702716999965055],[-87.94105599961591,41.70344700030427],[-87.9406530001081,41.70361400021203],[-87.93656599973865,41.70544299978045],[-87.93530299989021,41.70710399990727],[-87.93471500043447,41.70800199989404],[-87.93422599981461,41.70845699998958],[-87.93350299974134,41.708855999775615],[-87.93158100029204,41.70950000024173],[-87.93008200044207,41.71018699983433],[-87.9289440002671,41.71115000031376],[-87.92723899965446,41.712633999934575],[-87.925178000288,41.71285699980868],[-87.92086499996273,41.71644099974052],[-87.91825300005213,41.71657100017712],[-87.9173850002139,41.71618400012041],[-87.91426399959197,41.716598000281216],[-87.9144629997836,41.72176199983163],[-87.91450399979148,41.722305999829246],[-87.91461000009669,41.72388800027062],[-87.91470100033328,41.72591300014182],[-87.91488299990817,41.7311350002677],[-87.91511899990971,41.73844400007126],[-87.91541099998776,41.745716000003604],[-87.9158079996478,41.756720999958404],[-87.91581100002085,41.75683500010884],[-87.91614999995456,41.767062999842736],[-87.91632200038201,41.77151500030517],[-87.91665799994267,41.780223999924196],[-87.91671999986694,41.78173300008153],[-87.916871000378,41.78519099999185],[-87.91701600014295,41.78942800009515],[-87.91760699997177,41.803944000170326],[-87.91767200026909,41.80539800024681],[-87.91767599956874,41.80564399997859],[-87.91779500029273,41.80807299967013],[-87.9182449996562,41.817872000260934],[-87.91828200036446,41.81872000002799],[-87.91859600018381,41.82548399973861],[-87.91861000042752,41.82578199989903],[-87.91863899984152,41.82641699978764],[-87.91895199983597,41.83314899984551],[-87.91979299991002,41.84054999975714],[-87.91923800006622,41.84768099990371],[-87.91939500042506,41.8540389997019],[-87.91995699994153,41.85858400023679],[-87.9202990002483,41.861597999970925],[-87.9203140003169,41.86187700025424],[-87.92033000021044,41.862164000160234],[-87.9204619995566,41.86746499997527],[-87.92047300032557,41.8678289999351],[-87.92048599984604,41.86955199976818],[-87.92045900008186,41.873114000021374],[-87.9204959998918,41.8764100000785],[-87.92050799958736,41.876908999747805],[-87.92060600039495,41.88270099976055],[-87.92060700021987,41.88307800010788],[-87.92062499976322,41.8896900000383],[-87.92062399993831,41.88975199971003],[-87.92056600021199,41.89731600029702],[-87.9205600003642,41.89969699995913],[-87.92042300009685,41.90684300027629],[-87.92039299995963,41.914036999828625],[-87.9203619999975,41.91741599975531],[-87.920341999906,41.92156599996488],[-87.9203279996623,41.924098000179505],[-87.92032600001248,41.92495899984586],[-87.92028800037765,41.931299999847546],[-87.92026499991312,41.93580399967509],[-87.9202509996694,41.941600000046776],[-87.92024399999671,41.943125999676674],[-87.9202430001718,41.946360000093364],[-87.92020499963864,41.951269999791194],[-87.92019700014104,41.95325900033301],[-87.92017100020179,41.958165000294976],[-87.9202289999281,41.97183999979446],[-87.9204759998003,41.993886000035936],[-87.93896699976206,41.993515000035764],[-87.93994599992836,41.99348100013457],[-87.9471709997399,41.993383000199806],[-87.95289099985362,41.993280000092106],[-87.95923100010849,41.993170000175496],[-87.95946799993496,41.99316500014439],[-87.96875499983616,41.99302599992442],[-87.97035300031867,41.99300099970858],[-87.976593999941,41.99291500009277],[-87.9788460000015,41.99288200001527],[-87.97954099958736,41.99287199990748],[-87.99338100001336,41.992731000089805],[-87.99542499966138,41.992714999745104],[-87.99717600030476,41.99269299984874],[-87.99816600034171,41.99268299971125],[-88.00315800035933,41.99262099989201],[-88.01648999989891,41.992463999778174],[-88.02346600018839,41.99248800005455],[-88.02377800035792,41.99248900020494],[-88.03131000031611,41.99252599975035],[-88.03144900023328,41.99252699990013],[-88.0399639996574,41.99219399988443],[-88.0411810003734,41.99214699992438],[-88.04628100034604,41.991963999862875],[-88.04825300002406,41.99189400006877],[-88.05095899964599,41.99191900005174],[-88.05577300028666,41.99168099973521],[-88.05654599969036,41.991640999875166],[-88.0610339999178,41.9914139996927],[-88.06971200044688,41.991041999799286],[-88.0699330003798,41.99104500031864],[-88.08022299983845,41.99075199967022],[-88.09019199980504,41.99032300010929],[-88.0905890003634,41.99030999971328],[-88.10087399979918,41.989924000047125],[-88.10674899972364,41.98970200005417],[-88.10985500027697,41.98958499992681],[-88.11720700031007,41.98931099970579],[-88.11928100009534,41.989228999917245],[-88.12223799978743,41.98911200025588],[-88.12701700026803,41.98893300030643],[-88.12799200023638,41.98887299991983],[-88.12919099961239,41.98883600025414],[-88.14483600021013,41.98825400017484],[-88.14510099962568,41.98824200024111],[-88.1471150000348,41.9881990002375],[-88.14935299985159,41.98816800015478],[-88.15957200006343,41.98791900006254],[-88.1598790002101,41.987911999842076],[-88.16875400038266,41.98773899987208],[-88.17409600020464,41.98769900020574],[-88.18356499968073,41.987611999876584],[-88.18421499995907,41.98759900026231],[-88.18596900007718,41.98763599997924],[-88.18879000022515,41.98759300023402],[-88.20727600016401,41.987329999995424],[-88.20739599981462,41.98732599973714],[-88.21120699999956,41.98725399971903],[-88.21870299997273,41.98713800000086],[-88.22836899999064,41.98703100019432],[-88.22870799992434,41.98670499982475],[-88.23138299958413,41.98664600025127],[-88.2322660003893,41.98695700003565],[-88.23244899978907,41.98695399999132],[-88.23447900009172,41.986902000313215],[-88.23690299968133,41.9868030000253],[-88.23690299968133,41.98683700015503],[-88.23767199978536,41.986817000041626],[-88.23822099978136,41.98680600007675],[-88.25094800014674,41.98658500013679],[-88.25327100035234,41.98654599998924],[-88.25507300015104,41.98651400019269],[-88.26287500044596,41.98637800021031],[-88.26287600027086,41.98243500019]]]},"properties":{"NAME":"DuPage County","COUNTY":"043"}},{"type":"Feature","geometry":{"type":"Polygon","coordinates":[[[-88.70737999995133,42.49358699985932],[-88.70742080861804,42.493585930785386],[-88.70736700043084,42.49075600018865],[-88.70632200014228,42.45130299988395],[-88.70620199959338,42.443205999952205],[-88.70594100037577,42.41498900008995],[-88.70560999993967,42.32788199982703],[-88.70559499987105,42.27703999990656],[-88.70556999975669,42.269516999889596],[-88.70547400039554,42.25642800018563],[-88.70540999992312,42.252437999929754],[-88.70548100006825,42.24936400004693],[-88.70546900037267,42.24076599970265],[-88.70546599999963,42.22086700000642],[-88.70567799971174,42.18376300013362],[-88.70554499964233,42.181913000084656],[-88.7055849998253,42.153537000097174],[-88.695685000354,42.153520000001166],[-88.59328400014489,42.1535549998021],[-88.58865700000027,42.1535900002497],[-88.53533300024334,42.15363399985253],[-88.51867699969226,42.153693000255764],[-88.51807900019078,42.15376099976058],[-88.5110469998248,42.15368300014615],[-88.49153300021412,42.15373899967416],[-88.4817809999825,42.15375399982476],[-88.47277500028868,42.15374699988812],[-88.4720580000632,42.1537480001645],[-88.46388400022259,42.15379900025512],[-88.44924299990552,42.15392399995086],[-88.4460240002726,42.153847000146165],[-88.43962700011635,42.153746000277664],[-88.43248699979532,42.15382300020519],[-88.42282099977741,42.15384599987136],[-88.42252399967651,42.15389399972675],[-88.41639799968189,42.15392200006954],[-88.4146729998761,42.15392899998683],[-88.41237599960978,42.15393500029586],[-88.41222599982193,42.15393900005762],[-88.39998899990132,42.15392799971332],[-88.39827499996618,42.153889999962196],[-88.39349999968354,42.15390199992111],[-88.38897999966905,42.15391099972229],[-88.38875299988833,42.15391199999612],[-88.38367399983208,42.15396999986734],[-88.36957099964036,42.15401800029467],[-88.36951799993692,42.15401399987198],[-88.36940300030919,42.15401599975035],[-88.35929000040255,42.15400399981304],[-88.35441600038571,42.15400000005545],[-88.33262200022715,42.15392200006954],[-88.32713700029004,42.15389800015702],[-88.32117000030408,42.15386499976298],[-88.31626500032512,42.153842000103715],[-88.30868099959007,42.15375100032768],[-88.30652300013924,42.153758000263885],[-88.30157899980219,42.15388600019734],[-88.29955900044362,42.15386799992058],[-88.29892000003595,42.15386200027116],[-88.29557199963327,42.15392700010571],[-88.29295600042303,42.15389800015702],[-88.2926590003221,42.153871999686565],[-88.29228799970302,42.15385099991348],[-88.28762600029663,42.15372999984848],[-88.27728400006112,42.153971000140245],[-88.27237800025723,42.153823999814435],[-88.26515199972249,42.153666999701045],[-88.25773399956712,42.15407900021635],[-88.25768900025959,42.15407299992097],[-88.25076700039676,42.153751999938066],[-88.25040199962548,42.153736999787],[-88.24783900011869,42.15362699990263],[-88.23844900028531,42.15424900013547],[-88.21167999982757,42.154264999767484],[-88.19958400037228,42.15425999975806],[-88.1994539997776,42.161029000127606],[-88.19975900027445,42.1687239997608],[-88.19955099986198,42.18325399973937],[-88.1995170004251,42.187398999997576],[-88.19951200040225,42.18783699967816],[-88.19951099967902,42.18802700009725],[-88.19949099958754,42.190471999791754],[-88.19947899989198,42.19187799971438],[-88.1994670001964,42.193402000317526],[-88.19946100034862,42.1941799996704],[-88.19943100021139,42.197722999753516],[-88.19937799960964,42.202965999748706],[-88.19933599977685,42.208873000000885],[-88.19917500011834,42.21977500031428],[-88.19904200004896,42.23604400021177],[-88.19883100016176,42.23665399970003],[-88.19877699973509,42.23701300025597],[-88.19849399987787,42.241561000035176],[-88.19824500035585,42.24155900026528],[-88.19827399976985,42.24548999993429],[-88.19829899988422,42.24883399999052],[-88.19831999980062,42.25562599973934],[-88.19831999980062,42.256135000194405],[-88.19837699970202,42.25964499974809],[-88.19843199995361,42.26912699966864],[-88.19842899958056,42.269799000059834],[-88.19846200009081,42.27228500007826],[-88.1984810003574,42.27302700031322],[-88.1985010004489,42.27396499983532],[-88.19848499965704,42.2744340000112],[-88.19846999958843,42.27765499999487],[-88.19854999995438,42.2845859997449],[-88.19856199964994,42.28501800014582],[-88.19855900017521,42.28863300019274],[-88.1986000001831,42.29227199999518],[-88.198713000161,42.2955259999899],[-88.19875300034397,42.29813899984694],[-88.19878900032897,42.30099200007144],[-88.1987909999788,42.3011549999214],[-88.19881699991807,42.30320199973499],[-88.1988549995529,42.30632699996909],[-88.19880799969722,42.31393999979563],[-88.19902399960729,42.317739999950874],[-88.19882899961364,42.32103300009771],[-88.19874999997091,42.32861099987025],[-88.19864700003875,42.328861000017646],[-88.19859799963494,42.33702099989089],[-88.1984880000301,42.34315299989787],[-88.19849800007583,42.34873799985433],[-88.1985010004489,42.35058099969551],[-88.1984539996949,42.357962000289604],[-88.19849600042602,42.36499499990242],[-88.1985309996878,42.37242199995525],[-88.19861299970357,42.37991099990281],[-88.19866200010738,42.385027000216574],[-88.19868499967359,42.38720499984554],[-88.19880400039759,42.39664199988807],[-88.19880799969722,42.40121199982721],[-88.19881400044335,42.40843899987495],[-88.19881600009316,42.41093699997491],[-88.19881899956789,42.41485699982615],[-88.19882000029112,42.41557000009367],[-88.198601000008,42.41556699977189],[-88.19865399971145,42.42001899971544],[-88.19868100037394,42.421900999972266],[-88.19870399994016,42.423971999973034],[-88.19870399994016,42.42747599991341],[-88.19872599968147,42.43006700009426],[-88.19874199957499,42.43182900020888],[-88.1987549999938,42.43578699993396],[-88.198713000161,42.44101200005535],[-88.19874400012314,42.44237499987079],[-88.19884700005531,42.44462999993689],[-88.19886499959864,42.45185799973181],[-88.19887499964437,42.455473999966514],[-88.1988810003905,42.45905400010383],[-88.1989819997745,42.46259800031572],[-88.19908899990463,42.46634099967045],[-88.1991509998289,42.473474999790824],[-88.19921199992828,42.4808970000179],[-88.19940100007418,42.488032000011295],[-88.19939400040147,42.49270299995558],[-88.1993911159111,42.49601786711162],[-88.20017199982802,42.49601599994782],[-88.20658229505048,42.49598036154982],[-88.21144587461002,42.49595332242683],[-88.2140485805507,42.495938852719114],[-88.21690000034913,42.495923000019886],[-88.21885767549162,42.49591710178676],[-88.22370463442176,42.495902497613486],[-88.23134879443306,42.49587946634372],[-88.23789290719183,42.49585974947173],[-88.25009000035425,42.49582300022081],[-88.2617190923558,42.49528194923596],[-88.26537932648996,42.49511165424837],[-88.27169100016899,42.49481799988544],[-88.2745859945469,42.49481402637331],[-88.27742489811848,42.49481012969504],[-88.27997398990806,42.49480663043399],[-88.28500152278673,42.49479972927869],[-88.302633360536,42.49477552720765],[-88.3027342107997,42.494775388773846],[-88.30298975185362,42.4947750383839],[-88.30469200002821,42.49477270156772],[-88.3090158097813,42.49476676679617],[-88.31143770371989,42.494763442396575],[-88.31207889511856,42.49476256211614],[-88.31247383583997,42.49476202030323],[-88.31587619240216,42.49475734998168],[-88.31656775413542,42.494756400815476],[-88.31762252090775,42.49475495288987],[-88.32250117868932,42.494748256399035],[-88.3348035283519,42.49473136944884],[-88.33491015568119,42.49473122306655],[-88.33909300000326,42.494725481701174],[-88.35518611889226,42.494703391879],[-88.41311399975164,42.494623877727626],[-88.41739600011476,42.49461799990527],[-88.41844499970297,42.49461799990527],[-88.42251291356759,42.49461799990527],[-88.4319910004011,42.49461799990527],[-88.4468889997378,42.49461799990527],[-88.46139699998547,42.49461799990527],[-88.4716216532954,42.49467753054923],[-88.50691199977474,42.49488300012208],[-88.54035305015572,42.494923614141165],[-88.55022104265345,42.494935598904796],[-88.55981829550096,42.49494725513509],[-88.58986938427402,42.494983751878884],[-88.59627988610902,42.494991537927596],[-88.59700006906554,42.49499241224351],[-88.59939510966535,42.494995321330975],[-88.59941288103663,42.49499534252648],[-88.60669567935183,42.49500418768809],[-88.6073661055231,42.49500500172904],[-88.63865300034432,42.49504300000928],[-88.65835998502747,42.49462550250759],[-88.67079614054826,42.494362039216355],[-88.70737999995133,42.49358699985932]]]},"properties":{"NAME":"McHenry County","COUNTY":"111"}}]}