{"type":"FeatureCollection","metadata":{"note":"Archived fallback cache: the pre-round-3 Voronoi-tessellation suburb cells, kept ONLY as a last-resort fallback geometry source for scripts/generate-geometry.mjs if a specific suburb genuinely cannot be matched to a real Census TIGER/Line Place boundary. Not used unless that matching fails for a given suburb id."},"features":[{"type":"Feature","properties":{"id":"evanston","name":"Evanston","geometrySource":"voronoi-illustrative"},"geometry":{"type":"MultiPolygon","coordinates":[[[[-87.7218,41.9973],[-87.7107,41.9974],[-87.7107,41.9973],[-87.7095,41.9974],[-87.709,42.0191],[-87.6847,42.0195],[-87.6731,42.0194],[-87.6771,42.023],[-87.6658,42.0229],[-87.669,42.0291],[-87.6694,42.032],[-87.6882,42.0228],[-87.6694,42.032],[-87.6711,42.0427],[-87.6732,42.048],[-87.6705,42.053],[-87.6715,42.0583],[-87.6824,42.0757],[-87.6815,42.0784],[-87.6821,42.0787],[-87.7146,42.0456],[-87.7098,42.0264],[-87.7115,42.024],[-87.7142,42.0004],[-87.7218,41.9973]]],[[[-87.6632,42.0177],[-87.661,42.012],[-87.6596,42.0108],[-87.6632,42.0177]]],[[[-87.6544,41.9908],[-87.6543,41.9884],[-87.6535,41.9878],[-87.654,41.989],[-87.6544,41.9908]]]]}},{"type":"Feature","properties":{"id":"oak-park","name":"Oak Park","geometrySource":"voronoi-illustrative"},"geometry":{"type":"MultiPolygon","coordinates":[[[[-87.8008,41.8848],[-87.7951,41.8692],[-87.776,41.8646],[-87.7741,41.8655],[-87.775,41.8924],[-87.7744,41.8734],[-87.7756,41.9093],[-87.7832,41.9092],[-87.7822,41.9092],[-87.7847,41.9091],[-87.7932,41.9066],[-87.8008,41.8848]]],[[[-87.7984,41.9089],[-87.7932,41.9066],[-87.7847,41.9091],[-87.7984,41.9089]]],[[[-87.7028,41.9707],[-87.7026,41.9703],[-87.6947,41.9613],[-87.7028,41.9707]]],[[[-87.6923,41.8844],[-87.6906,41.8873],[-87.6912,41.8871],[-87.6923,41.8844]]],[[[-87.691,41.8681],[-87.6908,41.8666],[-87.6882,41.8631],[-87.691,41.8681]]],[[[-87.6824,41.9141],[-87.6674,41.9143],[-87.6824,41.9146],[-87.6824,41.9141]]],[[[-87.6674,41.9143],[-87.6614,41.9162],[-87.6637,41.9157],[-87.6636,41.9156],[-87.6674,41.9143]]],[[[-87.6446,41.9706],[-87.643,41.9681],[-87.6408,41.9675],[-87.6446,41.9706]]],[[[-87.6421,41.9479],[-87.64,41.9459],[-87.6405,41.9448],[-87.6371,41.9398],[-87.6355,41.9397],[-87.634,41.9416],[-87.6313,41.9341],[-87.6333,41.9424],[-87.6334,41.9425],[-87.6359,41.943],[-87.6374,41.9458],[-87.6421,41.9479]]],[[[-87.6421,41.9618],[-87.6413,41.96],[-87.6414,41.9617],[-87.6378,41.9622],[-87.6421,41.9618]]],[[[-87.6417,41.9584],[-87.641,41.9548],[-87.6408,41.9543],[-87.6412,41.9591],[-87.6417,41.9584]]],[[[-87.64,41.9528],[-87.6375,41.9474],[-87.6341,41.9436],[-87.64,41.9528]]],[[[-87.6377,41.9623],[-87.6363,41.9616],[-87.6354,41.9625],[-87.6377,41.9623]]],[[[-87.6307,41.9316],[-87.6299,41.9235],[-87.6286,41.9232],[-87.6307,41.9316]]],[[[-87.6295,41.9224],[-87.6285,41.921],[-87.6289,41.9208],[-87.6279,41.9201],[-87.6286,41.923],[-87.6295,41.9224]]],[[[-87.6279,41.9176],[-87.6231,41.9137],[-87.6211,41.9135],[-87.6271,41.9171],[-87.6273,41.918],[-87.6279,41.9176]]],[[[-87.6263,41.9116],[-87.6245,41.9116],[-87.6247,41.911],[-87.6207,41.9132],[-87.6208,41.9133],[-87.6263,41.9116]]],[[[-87.6141,41.8936],[-87.6137,41.8931],[-87.612,41.8933],[-87.6102,41.8962],[-87.6046,41.8963],[-87.6101,41.8964],[-87.612,41.8937],[-87.6141,41.8936]]]]}},{"type":"Feature","properties":{"id":"skokie","name":"Skokie","geometrySource":"voronoi-illustrative"},"geometry":{"type":"Polygon","coordinates":[[[-87.7631,42.021],[-87.7527,42.0155],[-87.7115,42.024],[-87.7098,42.0264],[-87.7146,42.0456],[-87.7522,42.0667],[-87.7559,42.0625],[-87.7631,42.021]]]}},{"type":"Feature","properties":{"id":"cicero","name":"Cicero","geometrySource":"voronoi-illustrative"},"geometry":{"type":"MultiPolygon","coordinates":[[[[-87.7832,41.8208],[-87.7522,41.821],[-87.7403,41.8339],[-87.7392,41.8426],[-87.7393,41.8456],[-87.7394,41.8481],[-87.7419,41.8564],[-87.7394,41.8481],[-87.7398,41.866],[-87.751,41.8658],[-87.7741,41.8655],[-87.7741,41.8655],[-87.776,41.8646],[-87.7832,41.8208]]],[[[-87.7386,41.8187],[-87.7144,41.826],[-87.6874,41.8348],[-87.7386,41.8187]]],[[[-87.7376,41.7858],[-87.7129,41.7861],[-87.6792,41.7866],[-87.6793,41.79],[-87.6797,41.7866],[-87.7134,41.7861],[-87.7376,41.7858]]],[[[-87.7282,41.7983],[-87.7152,41.8038],[-87.7148,41.8044],[-87.7282,41.7983]]],[[[-87.7144,41.8051],[-87.7139,41.8059],[-87.7144,41.826],[-87.7144,41.8051]]],[[[-87.6874,41.8349],[-87.6874,41.8348],[-87.6874,41.8347],[-87.6797,41.8371],[-87.6874,41.8349]]],[[[-87.6797,41.8371],[-87.6682,41.8373],[-87.667,41.8379],[-87.6797,41.8371]]],[[[-87.6788,41.7935],[-87.6549,41.7942],[-87.6286,41.7946],[-87.6286,41.7946],[-87.6355,41.7945],[-87.6788,41.7939],[-87.6788,41.7935]]],[[[-87.6644,41.8395],[-87.6643,41.8391],[-87.6574,41.8312],[-87.6644,41.8395]]],[[[-87.6347,41.8673],[-87.619,41.8675],[-87.6139,41.8685],[-87.6162,41.8689],[-87.6162,41.8689],[-87.6154,41.8683],[-87.6347,41.8673]]],[[[-87.63,41.8455],[-87.6092,41.8447],[-87.6092,41.8447],[-87.6292,41.8456],[-87.63,41.8455]]],[[[-87.6158,41.7857],[-87.5771,41.7861],[-87.606,41.7859],[-87.6158,41.7857]]],[[[-87.6134,41.8634],[-87.6122,41.8603],[-87.6129,41.8564],[-87.61,41.8521],[-87.6065,41.8532],[-87.6065,41.8534],[-87.6099,41.8538],[-87.6093,41.8568],[-87.6107,41.8607],[-87.6096,41.8634],[-87.6105,41.8659],[-87.6127,41.8658],[-87.6134,41.8634]]],[[[-87.6133,41.8683],[-87.6124,41.8679],[-87.6127,41.8668],[-87.6061,41.8669],[-87.6133,41.8683]]],[[[-87.6089,41.844],[-87.6078,41.841],[-87.6073,41.8408],[-87.6089,41.844]]],[[[-87.6076,41.8643],[-87.6061,41.8621],[-87.6059,41.8668],[-87.6059,41.8669],[-87.606,41.8648],[-87.6076,41.8643]]],[[[-87.6075,41.8405],[-87.6071,41.8395],[-87.6063,41.8387],[-87.6072,41.8405],[-87.6075,41.8405]]],[[[-87.6071,41.86],[-87.6065,41.8535],[-87.6062,41.8601],[-87.6071,41.86]]],[[[-87.6061,41.8373],[-87.6031,41.832],[-87.6061,41.8383],[-87.6061,41.8373]]],[[[-87.5861,41.8091],[-87.5852,41.8072],[-87.5837,41.8062],[-87.5861,41.8091]]],[[[-87.5796,41.792],[-87.5783,41.7907],[-87.5793,41.793],[-87.5796,41.792]]],[[[-87.5791,41.7936],[-87.5763,41.795],[-87.576,41.7958],[-87.5789,41.7943],[-87.5791,41.7936]]],[[[-87.5778,41.7883],[-87.5771,41.7861],[-87.576,41.7836],[-87.5736,41.7826],[-87.5763,41.786],[-87.5774,41.7884],[-87.5778,41.7883]]],[[[-87.5753,41.7774],[-87.575,41.7758],[-87.572,41.7758],[-87.5734,41.7783],[-87.5725,41.779],[-87.5729,41.7793],[-87.5725,41.7804],[-87.5731,41.7803],[-87.5753,41.7774]]],[[[-87.5696,41.7765],[-87.567,41.7738],[-87.5665,41.7738],[-87.5696,41.7765]]],[[[-87.5631,41.7708],[-87.5623,41.769],[-87.5605,41.7684],[-87.5604,41.7685],[-87.5631,41.7708]]],[[[-87.5605,41.7654],[-87.5561,41.7618],[-87.5553,41.7615],[-87.5604,41.7655],[-87.5605,41.7654]]],[[[-87.5399,41.741],[-87.5302,41.7406],[-87.5303,41.7413],[-87.5399,41.741]]],[[[-87.5366,41.73],[-87.5293,41.733],[-87.5293,41.7328],[-87.5293,41.7335],[-87.5366,41.73]]]]}},{"type":"Feature","properties":{"id":"berwyn","name":"Berwyn","geometrySource":"voronoi-illustrative"},"geometry":{"type":"Polygon","coordinates":[[[-87.8336,41.8365],[-87.8166,41.8031],[-87.8169,41.801],[-87.8335,41.749],[-87.8084,41.7419],[-87.7531,41.7516],[-87.7413,41.7442],[-87.7411,41.7345],[-87.7415,41.7533],[-87.7421,41.7711],[-87.7422,41.7748],[-87.8008,41.7737],[-87.8012,41.7847],[-87.8016,41.798],[-87.7972,41.7994],[-87.7527,41.8002],[-87.7531,41.8133],[-87.7447,41.816],[-87.7448,41.822],[-87.7387,41.8221],[-87.7393,41.8456],[-87.7392,41.8426],[-87.7403,41.8339],[-87.7522,41.821],[-87.7832,41.8208],[-87.776,41.8646],[-87.7951,41.8692],[-87.8336,41.8365]]]}},{"type":"Feature","properties":{"id":"arlington-heights","name":"Arlington Heights","geometrySource":"voronoi-illustrative"},"geometry":{"type":"Polygon","coordinates":[[[-88.0008,42.1156],[-87.9918,42.0454],[-87.9746,42.0461],[-87.9453,42.1042],[-87.9877,42.1476],[-88.0008,42.1156]]]}},{"type":"Feature","properties":{"id":"wilmette","name":"Wilmette","geometrySource":"voronoi-illustrative"},"geometry":{"type":"Polygon","coordinates":[[[-87.7522,42.0667],[-87.7146,42.0456],[-87.6821,42.0787],[-87.6945,42.0844],[-87.711,42.0953],[-87.7134,42.0976],[-87.7517,42.0755],[-87.7522,42.0667]]]}},{"type":"Feature","properties":{"id":"des-plaines","name":"Des Plaines","geometrySource":"voronoi-illustrative"},"geometry":{"type":"Polygon","coordinates":[[[-87.9301,42.0176],[-87.9281,42.0114],[-87.8687,42.0094],[-87.8399,42.0646],[-87.8442,42.0742],[-87.8813,42.0969],[-87.9301,42.0176]]]}},{"type":"Feature","properties":{"id":"park-ridge","name":"Park Ridge","geometrySource":"voronoi-illustrative"},"geometry":{"type":"MultiPolygon","coordinates":[[[[-87.8687,42.0094],[-87.8562,41.9869],[-87.8558,41.9891],[-87.8388,41.9867],[-87.8366,41.9864],[-87.8234,41.9845],[-87.8233,41.9845],[-87.8214,41.9969],[-87.8213,42.0114],[-87.8197,42.0114],[-87.8212,42.0186],[-87.8065,42.019],[-87.8132,42.0188],[-87.8244,42.0305],[-87.8297,42.0564],[-87.8399,42.0646],[-87.8687,42.0094]]],[[[-87.8351,41.9805],[-87.8289,41.9806],[-87.8281,41.9791],[-87.83,41.9781],[-87.8296,41.977],[-87.8336,41.9769],[-87.8336,41.9759],[-87.8244,41.9761],[-87.8235,41.9831],[-87.8281,41.9819],[-87.8282,41.9838],[-87.8332,41.9837],[-87.8351,41.9827],[-87.8344,41.981],[-87.8351,41.9805]]]]}},{"type":"Feature","properties":{"id":"orland-park","name":"Orland Park","geometrySource":"voronoi-illustrative"},"geometry":{"type":"Polygon","coordinates":[[[-87.9252,41.7018],[-87.89,41.5842],[-87.8478,41.5704],[-87.8073,41.6183],[-87.9208,41.7037],[-87.9252,41.7018]]]}},{"type":"Feature","properties":{"id":"tinley-park","name":"Tinley Park","geometrySource":"voronoi-illustrative"},"geometry":{"type":"Polygon","coordinates":[[[-87.8478,41.5704],[-87.8383,41.5501],[-87.7959,41.5161],[-87.7357,41.5584],[-87.7218,41.6026],[-87.7211,41.6085],[-87.7234,41.6176],[-87.7369,41.6259],[-87.8059,41.619],[-87.8073,41.6183],[-87.8478,41.5704]]]}},{"type":"Feature","properties":{"id":"schaumburg","name":"Schaumburg","geometrySource":"voronoi-illustrative"},"geometry":{"type":"Polygon","coordinates":[[[-88.1506,41.9917],[-88.0509,41.9953],[-88.0287,42.0244],[-88.0272,42.0296],[-88.0571,42.0707],[-88.0924,42.0934],[-88.1506,41.9917]]]}},{"type":"Feature","properties":{"id":"hoffman-estates","name":"Hoffman Estates","geometrySource":"voronoi-illustrative"},"geometry":{"type":"Polygon","coordinates":[[[-88.2182,42.0628],[-88.202,42.0014],[-88.1937,41.9862],[-88.1537,41.99],[-88.1506,41.9917],[-88.0924,42.0934],[-88.1038,42.1263],[-88.1668,42.154],[-88.1759,42.154],[-88.2182,42.0628]]]}},{"type":"Feature","properties":{"id":"naperville","name":"Naperville","geometrySource":"voronoi-illustrative"},"geometry":{"type":"Polygon","coordinates":[[[-88.2622,41.8008],[-88.262,41.7247],[-88.2386,41.7251],[-88.1129,41.7274],[-88.1129,41.774],[-88.1365,41.8109],[-88.1672,41.8232],[-88.2344,41.7962],[-88.2371,41.7986],[-88.2622,41.8008]]]}},{"type":"Feature","properties":{"id":"elmhurst","name":"Elmhurst","geometrySource":"voronoi-illustrative"},"geometry":{"type":"Polygon","coordinates":[[[-87.967,41.922],[-87.9529,41.8666],[-87.9157,41.8732],[-87.9016,41.9274],[-87.964,41.9276],[-87.967,41.922]]]}},{"type":"Feature","properties":{"id":"downers-grove","name":"Downers Grove","geometrySource":"voronoi-illustrative"},"geometry":{"type":"Polygon","coordinates":[[[-88.0472,41.837],[-88.0399,41.7776],[-88.0139,41.7505],[-87.9795,41.8428],[-87.9803,41.8431],[-88.0365,41.8457],[-88.0472,41.837]]]}},{"type":"Feature","properties":{"id":"wheaton","name":"Wheaton","geometrySource":"voronoi-illustrative"},"geometry":{"type":"Polygon","coordinates":[[[-88.1672,41.8232],[-88.1365,41.8109],[-88.0782,41.84],[-88.0963,41.903],[-88.1591,41.8662],[-88.1672,41.8232]]]}},{"type":"Feature","properties":{"id":"aurora","name":"Aurora","geometrySource":"voronoi-illustrative"},"geometry":{"type":"Polygon","coordinates":[[[-88.3811,41.7229],[-88.262,41.7247],[-88.2626,41.8597],[-88.2623,41.8008],[-88.3136,41.8051],[-88.3811,41.7229]]]}},{"type":"Feature","properties":{"id":"elgin","name":"Elgin","geometrySource":"voronoi-illustrative"},"geometry":{"type":"Polygon","coordinates":[[[-88.4157,42.0356],[-88.2634,42.0112],[-88.2636,42.0669],[-88.2631,42.0111],[-88.202,42.0014],[-88.2182,42.0628],[-88.3314,42.0967],[-88.3628,42.0939],[-88.4157,42.0356]]]}},{"type":"Feature","properties":{"id":"waukegan","name":"Waukegan","geometrySource":"voronoi-illustrative"},"geometry":{"type":"Polygon","coordinates":[[[-87.8766,42.3413],[-87.8265,42.346],[-87.8258,42.3555],[-87.824,42.3569],[-87.8235,42.3642],[-87.8218,42.3643],[-87.8207,42.3615],[-87.8168,42.3616],[-87.815,42.3694],[-87.8075,42.3826],[-87.8058,42.3837],[-87.8033,42.3905],[-87.8036,42.3999],[-87.8682,42.4096],[-87.8766,42.3413]]]}},{"type":"Feature","properties":{"id":"highland-park","name":"Highland Park","geometrySource":"voronoi-illustrative"},"geometry":{"type":"Polygon","coordinates":[[[-87.8293,42.2054],[-87.8177,42.1568],[-87.8275,42.1526],[-87.8084,42.1525],[-87.7854,42.1524],[-87.7591,42.1523],[-87.7688,42.1671],[-87.7693,42.1676],[-87.777,42.1761],[-87.7959,42.2014],[-87.8018,42.2106],[-87.8065,42.2209],[-87.8293,42.2054]]]}},{"type":"Feature","properties":{"id":"joliet","name":"Joliet","geometrySource":"voronoi-illustrative"},"geometry":{"type":"Polygon","coordinates":[[[-88.1491,41.5705],[-88.147,41.4264],[-88.0406,41.3944],[-88.0202,41.5378],[-88.1337,41.5832],[-88.139,41.5828],[-88.1491,41.5705]]]}},{"type":"Feature","properties":{"id":"winnetka","name":"Winnetka","geometrySource":"voronoi-illustrative"},"geometry":{"type":"Polygon","coordinates":[[[-87.7694,42.1048],[-87.7517,42.0755],[-87.7134,42.0976],[-87.7247,42.1077],[-87.7319,42.1171],[-87.7362,42.1208],[-87.7404,42.1267],[-87.7694,42.1048]]]}},{"type":"Feature","properties":{"id":"glencoe","name":"Glencoe","geometrySource":"voronoi-illustrative"},"geometry":{"type":"Polygon","coordinates":[[[-87.8084,42.1525],[-87.7929,42.1453],[-87.7893,42.1152],[-87.7694,42.1048],[-87.7404,42.1267],[-87.7591,42.1523],[-87.7854,42.1524],[-87.8084,42.1525]]]}},{"type":"Feature","properties":{"id":"northbrook","name":"Northbrook","geometrySource":"voronoi-illustrative"},"geometry":{"type":"Polygon","coordinates":[[[-87.8857,42.1528],[-87.8774,42.1309],[-87.8813,42.0969],[-87.8813,42.0969],[-87.8442,42.0742],[-87.7893,42.1152],[-87.7929,42.1453],[-87.8084,42.1525],[-87.8276,42.1525],[-87.8857,42.1528]]]}},{"type":"Feature","properties":{"id":"glenview","name":"Glenview","geometrySource":"voronoi-illustrative"},"geometry":{"type":"Polygon","coordinates":[[[-87.8442,42.0742],[-87.8399,42.0646],[-87.8297,42.0564],[-87.8193,42.0539],[-87.7559,42.0625],[-87.7522,42.0667],[-87.7517,42.0755],[-87.7694,42.1048],[-87.7893,42.1152],[-87.8442,42.0742]]]}},{"type":"Feature","properties":{"id":"morton-grove","name":"Morton Grove","geometrySource":"voronoi-illustrative"},"geometry":{"type":"Polygon","coordinates":[[[-87.8193,42.0539],[-87.7757,42.0144],[-87.7631,42.021],[-87.7559,42.0625],[-87.8193,42.0539]]]}},{"type":"Feature","properties":{"id":"niles","name":"Niles","geometrySource":"voronoi-illustrative"},"geometry":{"type":"Polygon","coordinates":[[[-87.8297,42.0564],[-87.8244,42.0305],[-87.8132,42.0188],[-87.8065,42.019],[-87.8066,42.0119],[-87.8068,42.0008],[-87.8053,42.0015],[-87.8011,42.0015],[-87.7995,42],[-87.7912,42.001],[-87.79,42.0007],[-87.782,42.0045],[-87.7887,42.012],[-87.7793,42.012],[-87.7791,42.0154],[-87.777,42.0154],[-87.7771,42.012],[-87.7733,42.012],[-87.7692,42.0049],[-87.7658,42.0033],[-87.7675,42.0047],[-87.7675,42.0083],[-87.7617,42.0083],[-87.7623,42.0017],[-87.7529,41.9973],[-87.7444,41.9973],[-87.7527,42.0155],[-87.7631,42.021],[-87.7757,42.0144],[-87.8193,42.0539],[-87.8297,42.0564]]]}},{"type":"Feature","properties":{"id":"lincolnwood","name":"Lincolnwood","geometrySource":"voronoi-illustrative"},"geometry":{"type":"MultiPolygon","coordinates":[[[[-87.7527,42.0155],[-87.7444,41.9973],[-87.7264,41.9972],[-87.7218,41.9973],[-87.7142,42.0004],[-87.7115,42.024],[-87.7527,42.0155]]],[[[-87.7526,41.968],[-87.7477,41.968],[-87.7477,41.9685],[-87.7526,41.968]]]]}},{"type":"Feature","properties":{"id":"palatine","name":"Palatine","geometrySource":"voronoi-illustrative"},"geometry":{"type":"Polygon","coordinates":[[[-88.1668,42.154],[-88.1038,42.1263],[-88.0924,42.0934],[-88.0571,42.0707],[-88.0008,42.1156],[-87.9877,42.1476],[-87.9892,42.1532],[-88.064,42.1535],[-88.1668,42.154]]]}},{"type":"Feature","properties":{"id":"mount-prospect","name":"Mount Prospect","geometrySource":"voronoi-illustrative"},"geometry":{"type":"Polygon","coordinates":[[[-87.9746,42.0461],[-87.9301,42.0176],[-87.8813,42.0969],[-87.8813,42.0969],[-87.9453,42.1042],[-87.9746,42.0461]]]}},{"type":"Feature","properties":{"id":"rolling-meadows","name":"Rolling Meadows","geometrySource":"voronoi-illustrative"},"geometry":{"type":"Polygon","coordinates":[[[-88.0571,42.0707],[-88.0272,42.0296],[-87.9918,42.0454],[-88.0008,42.1156],[-88.0571,42.0707]]]}},{"type":"Feature","properties":{"id":"wheeling","name":"Wheeling","geometrySource":"voronoi-illustrative"},"geometry":{"type":"Polygon","coordinates":[[[-87.9892,42.1532],[-87.9877,42.1476],[-87.9453,42.1042],[-87.8813,42.0969],[-87.8774,42.1309],[-87.8857,42.1528],[-87.9892,42.1532]]]}},{"type":"Feature","properties":{"id":"elk-grove-village","name":"Elk Grove Village","geometrySource":"voronoi-illustrative"},"geometry":{"type":"MultiPolygon","coordinates":[[[[-88.0287,42.0244],[-87.9715,41.9695],[-87.9376,41.996],[-87.9355,42],[-87.9306,42.004],[-87.9306,42.004],[-87.9304,42.0041],[-87.9304,42.0022],[-87.9205,42.0011],[-87.9205,42.005],[-87.9138,42.0051],[-87.9203,42.005],[-87.9282,42.0111],[-87.9281,42.0114],[-87.9301,42.0176],[-87.9746,42.0461],[-87.9918,42.0454],[-88.0272,42.0296],[-88.0287,42.0244]]],[[[-87.9041,42.0036],[-87.8997,42.0022],[-87.9024,42.004],[-87.9041,42.0036]]]]}},{"type":"Feature","properties":{"id":"rosemont","name":"Rosemont","geometrySource":"voronoi-illustrative"},"geometry":{"type":"Polygon","coordinates":[[[-87.9282,42.0111],[-87.9203,42.005],[-87.9138,42.0051],[-87.9138,42.0087],[-87.913,42.0051],[-87.9077,42.0052],[-87.9077,42.0089],[-87.9058,42.009],[-87.8943,42.0057],[-87.8943,42.0027],[-87.8919,42.004],[-87.89,42.0032],[-87.8904,42.0023],[-87.8987,42.0019],[-87.8974,42.0015],[-87.8975,42.0005],[-87.885,41.9985],[-87.8845,41.9951],[-87.8804,41.9952],[-87.8769,41.9857],[-87.8759,41.9857],[-87.8737,41.9767],[-87.8759,41.9766],[-87.8759,41.9739],[-87.862,41.9739],[-87.8612,41.976],[-87.8559,41.9811],[-87.8566,41.9844],[-87.8562,41.9869],[-87.8687,42.0094],[-87.9281,42.0114],[-87.9282,42.0111]]]}},{"type":"Feature","properties":{"id":"norridge","name":"Norridge","geometrySource":"voronoi-illustrative"},"geometry":{"type":"Polygon","coordinates":[[[-87.8466,41.9664],[-87.8367,41.9666],[-87.8366,41.9594],[-87.8327,41.9594],[-87.8318,41.9522],[-87.8196,41.9525],[-87.8073,41.9528],[-87.8073,41.9539],[-87.7943,41.96],[-87.7868,41.9602],[-87.7866,41.9529],[-87.7868,41.9684],[-87.788,41.9684],[-87.7877,41.9829],[-87.788,41.9689],[-87.8072,41.9683],[-87.8071,41.9745],[-87.8169,41.9743],[-87.817,41.9707],[-87.819,41.9706],[-87.8194,41.9742],[-87.8317,41.9731],[-87.8317,41.9739],[-87.8334,41.9739],[-87.8336,41.9754],[-87.8366,41.9753],[-87.8366,41.9748],[-87.8416,41.9744],[-87.8379,41.9738],[-87.838,41.9713],[-87.8366,41.9714],[-87.8367,41.9702],[-87.8416,41.9701],[-87.8416,41.972],[-87.8465,41.9719],[-87.8466,41.9664]]]}},{"type":"Feature","properties":{"id":"melrose-park","name":"Melrose Park","geometrySource":"voronoi-illustrative"},"geometry":{"type":"Polygon","coordinates":[[[-87.9108,41.9515],[-87.9008,41.9281],[-87.9003,41.9281],[-87.8602,41.888],[-87.8352,41.9012],[-87.8283,41.9224],[-87.8058,41.9123],[-87.8057,41.9088],[-87.8067,41.938],[-87.8066,41.9345],[-87.8164,41.9343],[-87.8165,41.9379],[-87.8348,41.9376],[-87.8432,41.9374],[-87.8496,41.9373],[-87.8518,41.9392],[-87.8527,41.9423],[-87.8549,41.9495],[-87.8541,41.9514],[-87.8466,41.9516],[-87.8466,41.9557],[-87.8585,41.956],[-87.8549,41.9664],[-87.8541,41.9712],[-87.8554,41.9725],[-87.8581,41.9717],[-87.8589,41.9714],[-87.8619,41.9733],[-87.8808,41.9729],[-87.8808,41.9572],[-87.8929,41.9581],[-87.8929,41.9508],[-87.9038,41.9506],[-87.9108,41.9515]]]}},{"type":"Feature","properties":{"id":"river-forest","name":"River Forest","geometrySource":"voronoi-illustrative"},"geometry":{"type":"Polygon","coordinates":[[[-87.8352,41.9012],[-87.8256,41.8847],[-87.8008,41.8848],[-87.7932,41.9066],[-87.7984,41.9089],[-87.8057,41.9088],[-87.8058,41.9123],[-87.8283,41.9224],[-87.8352,41.9012]]]}},{"type":"Feature","properties":{"id":"forest-park","name":"Forest Park","geometrySource":"voronoi-illustrative"},"geometry":{"type":"Polygon","coordinates":[[[-87.834,41.8369],[-87.8336,41.8365],[-87.7951,41.8692],[-87.8008,41.8848],[-87.8256,41.8847],[-87.834,41.8369]]]}},{"type":"Feature","properties":{"id":"maywood","name":"Maywood","geometrySource":"voronoi-illustrative"},"geometry":{"type":"Polygon","coordinates":[[[-87.8628,41.8673],[-87.8443,41.8411],[-87.834,41.8369],[-87.8256,41.8847],[-87.8352,41.9012],[-87.8602,41.888],[-87.8628,41.8673]]]}},{"type":"Feature","properties":{"id":"bellwood","name":"Bellwood","geometrySource":"voronoi-illustrative"},"geometry":{"type":"Polygon","coordinates":[[[-87.9157,41.8732],[-87.9103,41.8673],[-87.8628,41.8673],[-87.8602,41.888],[-87.9003,41.9281],[-87.9008,41.9281],[-87.9016,41.9274],[-87.9157,41.8732]]]}},{"type":"Feature","properties":{"id":"westchester","name":"Westchester","geometrySource":"voronoi-illustrative"},"geometry":{"type":"Polygon","coordinates":[[[-87.9103,41.8673],[-87.9008,41.8225],[-87.8443,41.8411],[-87.8628,41.8673],[-87.9103,41.8673]]]}},{"type":"Feature","properties":{"id":"la-grange","name":"La Grange","geometrySource":"voronoi-illustrative"},"geometry":{"type":"Polygon","coordinates":[[[-87.9014,41.8212],[-87.8864,41.7274],[-87.8577,41.7344],[-87.8335,41.749],[-87.8169,41.801],[-87.8166,41.8031],[-87.8336,41.8365],[-87.834,41.8369],[-87.8443,41.8411],[-87.9008,41.8225],[-87.9014,41.8212]]]}},{"type":"Feature","properties":{"id":"oak-lawn","name":"Oak Lawn","geometrySource":"voronoi-illustrative"},"geometry":{"type":"MultiPolygon","coordinates":[[[[-87.8084,41.7419],[-87.7526,41.6771],[-87.7299,41.7178],[-87.7185,41.7132],[-87.7126,41.7133],[-87.7125,41.7115],[-87.7113,41.7115],[-87.7111,41.7061],[-87.7023,41.7067],[-87.6965,41.7071],[-87.6924,41.7072],[-87.6915,41.7072],[-87.6917,41.7136],[-87.6818,41.7137],[-87.6825,41.7348],[-87.6901,41.7136],[-87.6825,41.7348],[-87.6825,41.7355],[-87.6745,41.7357],[-87.7341,41.7346],[-87.7411,41.7345],[-87.7413,41.7442],[-87.7531,41.7516],[-87.8084,41.7419]]],[[[-87.6786,41.7577],[-87.6779,41.7425],[-87.6776,41.7422],[-87.6786,41.7577],[-87.6786,41.7577]]],[[[-87.6734,41.7365],[-87.6728,41.7357],[-87.6731,41.7357],[-87.6678,41.7295],[-87.6681,41.7302],[-87.6734,41.7365]]],[[[-87.6616,41.6848],[-87.6159,41.6854],[-87.6422,41.6851],[-87.6616,41.6848]]],[[[-87.6441,41.7561],[-87.6399,41.7561],[-87.6397,41.7523],[-87.6394,41.7562],[-87.6441,41.7561]]],[[[-87.6396,41.7507],[-87.6392,41.7434],[-87.6395,41.7505],[-87.6021,41.7513],[-87.6396,41.7507]]],[[[-87.6341,41.7435],[-87.634,41.7395],[-87.6327,41.736],[-87.6341,41.7435]]],[[[-87.6114,41.6855],[-87.6016,41.6862],[-87.6113,41.6857],[-87.6114,41.6855]]],[[[-87.6045,41.7225],[-87.6044,41.7225],[-87.6004,41.7367],[-87.6045,41.7225]]],[[[-87.6016,41.6862],[-87.6016,41.6854],[-87.5944,41.699],[-87.6016,41.6862]]],[[[-87.5281,41.7159],[-87.5257,41.7173],[-87.5266,41.7172],[-87.5281,41.7159]]],[[[-87.5256,41.7194],[-87.5251,41.7185],[-87.5249,41.7211],[-87.5256,41.7194]]]]}},{"type":"Feature","properties":{"id":"evergreen-park","name":"Evergreen Park","geometrySource":"voronoi-illustrative"},"geometry":{"type":"MultiPolygon","coordinates":[[[[-87.7526,41.6771],[-87.7523,41.6725],[-87.7369,41.6259],[-87.7234,41.6176],[-87.6976,41.6377],[-87.6696,41.6457],[-87.6305,41.6396],[-87.587,41.6033],[-87.5746,41.6238],[-87.5246,41.6432],[-87.5242,41.7083],[-87.526,41.7095],[-87.5262,41.7095],[-87.5245,41.7085],[-87.5246,41.6918],[-87.5252,41.6445],[-87.5784,41.6447],[-87.6172,41.6446],[-87.6172,41.6503],[-87.6203,41.6509],[-87.6185,41.6556],[-87.6123,41.6854],[-87.6123,41.6854],[-87.6183,41.6591],[-87.6197,41.6591],[-87.6199,41.6611],[-87.6233,41.6624],[-87.6263,41.6617],[-87.6311,41.6578],[-87.647,41.6576],[-87.6472,41.6632],[-87.6414,41.6632],[-87.6417,41.6705],[-87.6612,41.6703],[-87.6616,41.6848],[-87.6614,41.6775],[-87.6668,41.6774],[-87.6673,41.676],[-87.6684,41.6762],[-87.668,41.6774],[-87.6862,41.6772],[-87.6857,41.6845],[-87.6956,41.6843],[-87.6959,41.6916],[-87.691,41.6923],[-87.6912,41.699],[-87.6961,41.6989],[-87.6965,41.7071],[-87.6958,41.6881],[-87.6995,41.6879],[-87.7006,41.6843],[-87.7054,41.6842],[-87.7053,41.6806],[-87.7114,41.6804],[-87.7115,41.6841],[-87.7394,41.6836],[-87.7397,41.6909],[-87.7203,41.6913],[-87.7211,41.7132],[-87.7185,41.7132],[-87.7299,41.7178],[-87.7526,41.6771]]],[[[-87.6009,41.6742],[-87.6009,41.6741],[-87.5849,41.6555],[-87.589,41.6604],[-87.6009,41.6742]]],[[[-87.5805,41.6502],[-87.5784,41.6447],[-87.5798,41.6494],[-87.5805,41.6502]]]]}},{"type":"Feature","properties":{"id":"palos-heights","name":"Palos Heights","geometrySource":"voronoi-illustrative"},"geometry":{"type":"Polygon","coordinates":[[[-87.8178,41.681],[-87.8059,41.619],[-87.7369,41.6259],[-87.7523,41.6725],[-87.8178,41.681]]]}},{"type":"Feature","properties":{"id":"palos-park","name":"Palos Park","geometrySource":"voronoi-illustrative"},"geometry":{"type":"Polygon","coordinates":[[[-87.9208,41.7037],[-87.8073,41.6183],[-87.8059,41.619],[-87.8178,41.681],[-87.8577,41.7344],[-87.8864,41.7274],[-87.9208,41.7037]]]}},{"type":"Feature","properties":{"id":"worth","name":"Worth","geometrySource":"voronoi-illustrative"},"geometry":{"type":"Polygon","coordinates":[[[-87.8577,41.7344],[-87.8178,41.681],[-87.7523,41.6725],[-87.7526,41.6771],[-87.8084,41.7419],[-87.8335,41.749],[-87.8577,41.7344]]]}},{"type":"Feature","properties":{"id":"homewood","name":"Homewood","geometrySource":"voronoi-illustrative"},"geometry":{"type":"Polygon","coordinates":[[[-87.7218,41.6026],[-87.6564,41.5287],[-87.5994,41.5618],[-87.7211,41.6085],[-87.7218,41.6026]]]}},{"type":"Feature","properties":{"id":"flossmoor","name":"Flossmoor","geometrySource":"voronoi-illustrative"},"geometry":{"type":"Polygon","coordinates":[[[-87.7357,41.5584],[-87.6869,41.4855],[-87.6564,41.5287],[-87.7218,41.6026],[-87.7357,41.5584]]]}},{"type":"Feature","properties":{"id":"chicago-heights","name":"Chicago Heights","geometrySource":"voronoi-illustrative"},"geometry":{"type":"Polygon","coordinates":[[[-87.6869,41.4855],[-87.6834,41.2967],[-87.5267,41.2981],[-87.5257,41.4703],[-87.5255,41.5058],[-87.5846,41.5633],[-87.5994,41.5618],[-87.6564,41.5287],[-87.6869,41.4855]]]}},{"type":"Feature","properties":{"id":"calumet-city","name":"Calumet City","geometrySource":"voronoi-illustrative"},"geometry":{"type":"Polygon","coordinates":[[[-87.587,41.6033],[-87.5846,41.5633],[-87.5255,41.5058],[-87.5246,41.6432],[-87.5746,41.6238],[-87.587,41.6033]]]}},{"type":"Feature","properties":{"id":"harvey","name":"Harvey","geometrySource":"voronoi-illustrative"},"geometry":{"type":"Polygon","coordinates":[[[-87.7234,41.6176],[-87.7211,41.6085],[-87.5994,41.5618],[-87.5846,41.5633],[-87.587,41.6033],[-87.6305,41.6396],[-87.6696,41.6457],[-87.6976,41.6377],[-87.7234,41.6176]]]}},{"type":"Feature","properties":{"id":"matteson","name":"Matteson","geometrySource":"voronoi-illustrative"},"geometry":{"type":"Polygon","coordinates":[[[-87.7959,41.5161],[-87.7783,41.2959],[-87.6834,41.2967],[-87.6869,41.4855],[-87.7357,41.5584],[-87.7959,41.5161]]]}},{"type":"Feature","properties":{"id":"lombard","name":"Lombard","geometrySource":"voronoi-illustrative"},"geometry":{"type":"Polygon","coordinates":[[[-88.0392,41.911],[-88.0365,41.8457],[-87.9803,41.8431],[-88.0008,41.9051],[-88.0392,41.911]]]}},{"type":"Feature","properties":{"id":"villa-park","name":"Villa Park","geometrySource":"voronoi-illustrative"},"geometry":{"type":"Polygon","coordinates":[[[-88.0008,41.9051],[-87.9803,41.8431],[-87.9795,41.8428],[-87.9765,41.8429],[-87.9529,41.8666],[-87.967,41.922],[-88.0008,41.9051]]]}},{"type":"Feature","properties":{"id":"glen-ellyn","name":"Glen Ellyn","geometrySource":"voronoi-illustrative"},"geometry":{"type":"Polygon","coordinates":[[[-88.0963,41.903],[-88.0782,41.84],[-88.0472,41.837],[-88.0365,41.8457],[-88.0392,41.911],[-88.0472,41.9209],[-88.091,41.9134],[-88.0963,41.903]]]}},{"type":"Feature","properties":{"id":"carol-stream","name":"Carol Stream","geometrySource":"voronoi-illustrative"},"geometry":{"type":"Polygon","coordinates":[[[-88.2631,42.0111],[-88.2629,41.9864],[-88.2629,41.9824],[-88.2627,41.943],[-88.249,41.939],[-88.1988,41.9767],[-88.1591,41.8662],[-88.0963,41.903],[-88.091,41.9134],[-88.1537,41.99],[-88.1937,41.9862],[-88.202,42.0014],[-88.2631,42.0111]]]}},{"type":"Feature","properties":{"id":"bloomingdale","name":"Bloomingdale","geometrySource":"voronoi-illustrative"},"geometry":{"type":"Polygon","coordinates":[[[-88.1537,41.99],[-88.091,41.9134],[-88.0472,41.9209],[-88.0391,41.9484],[-88.0509,41.9953],[-88.1506,41.9917],[-88.1537,41.99]]]}},{"type":"Feature","properties":{"id":"addison","name":"Addison","geometrySource":"voronoi-illustrative"},"geometry":{"type":"Polygon","coordinates":[[[-88.0472,41.9209],[-88.0392,41.911],[-88.0008,41.9051],[-87.967,41.922],[-87.964,41.9276],[-87.9753,41.9559],[-88.0391,41.9484],[-88.0472,41.9209]]]}},{"type":"Feature","properties":{"id":"bensenville","name":"Bensenville","geometrySource":"voronoi-illustrative"},"geometry":{"type":"Polygon","coordinates":[[[-87.9753,41.9559],[-87.964,41.9276],[-87.9016,41.9274],[-87.9008,41.9281],[-87.9108,41.9515],[-87.9147,41.952],[-87.9152,41.9568],[-87.92,41.9582],[-87.9222,41.9584],[-87.9222,41.9539],[-87.9264,41.9549],[-87.9264,41.959],[-87.9321,41.9599],[-87.9323,41.9648],[-87.9348,41.9648],[-87.9348,41.9668],[-87.9381,41.9643],[-87.9397,41.9643],[-87.9399,41.9935],[-87.9388,41.9935],[-87.9376,41.996],[-87.9715,41.9695],[-87.9753,41.9559]]]}},{"type":"Feature","properties":{"id":"itasca","name":"Itasca","geometrySource":"voronoi-illustrative"},"geometry":{"type":"Polygon","coordinates":[[[-88.0509,41.9953],[-88.0391,41.9484],[-87.9753,41.9559],[-87.9715,41.9695],[-88.0287,42.0244],[-88.0509,41.9953]]]}},{"type":"Feature","properties":{"id":"oak-brook","name":"Oak Brook","geometrySource":"voronoi-illustrative"},"geometry":{"type":"Polygon","coordinates":[[[-87.9765,41.8429],[-87.9561,41.8208],[-87.9014,41.8212],[-87.9008,41.8225],[-87.9103,41.8673],[-87.9157,41.8732],[-87.9529,41.8666],[-87.9765,41.8429]]]}},{"type":"Feature","properties":{"id":"hinsdale","name":"Hinsdale","geometrySource":"voronoi-illustrative"},"geometry":{"type":"Polygon","coordinates":[[[-87.9561,41.8208],[-87.9415,41.703],[-87.9252,41.7018],[-87.9208,41.7037],[-87.8864,41.7274],[-87.9014,41.8212],[-87.9561,41.8208]]]}},{"type":"Feature","properties":{"id":"westmont","name":"Westmont","geometrySource":"voronoi-illustrative"},"geometry":{"type":"Polygon","coordinates":[[[-88.0139,41.7505],[-88.0038,41.7294],[-87.9705,41.6982],[-87.9415,41.703],[-87.9561,41.8208],[-87.9765,41.8429],[-87.9795,41.8428],[-88.0139,41.7505]]]}},{"type":"Feature","properties":{"id":"lisle","name":"Lisle","geometrySource":"voronoi-illustrative"},"geometry":{"type":"Polygon","coordinates":[[[-88.1365,41.8109],[-88.1129,41.774],[-88.0399,41.7776],[-88.0472,41.837],[-88.0782,41.84],[-88.1365,41.8109]]]}},{"type":"Feature","properties":{"id":"woodridge","name":"Woodridge","geometrySource":"voronoi-illustrative"},"geometry":{"type":"Polygon","coordinates":[[[-88.1129,41.7274],[-88.0304,41.7289],[-88.0303,41.7275],[-88.0038,41.7294],[-88.0139,41.7505],[-88.0399,41.7776],[-88.1129,41.774],[-88.1129,41.7274]]]}},{"type":"Feature","properties":{"id":"west-chicago","name":"West Chicago","geometrySource":"voronoi-illustrative"},"geometry":{"type":"Polygon","coordinates":[[[-88.2627,41.943],[-88.2626,41.9141],[-88.2624,41.8597],[-88.2622,41.8008],[-88.2371,41.7986],[-88.2344,41.7962],[-88.1672,41.8232],[-88.1591,41.8662],[-88.1988,41.9767],[-88.249,41.939],[-88.2627,41.943]]]}},{"type":"Feature","properties":{"id":"north-chicago","name":"North Chicago","geometrySource":"voronoi-illustrative"},"geometry":{"type":"Polygon","coordinates":[[[-87.901,42.3085],[-87.8919,42.2828],[-87.8312,42.2833],[-87.8348,42.3015],[-87.8329,42.3089],[-87.8304,42.3123],[-87.832,42.3283],[-87.8272,42.3374],[-87.8265,42.346],[-87.8766,42.3413],[-87.901,42.3085]]]}},{"type":"Feature","properties":{"id":"gurnee","name":"Gurnee","geometrySource":"voronoi-illustrative"},"geometry":{"type":"Polygon","coordinates":[[[-87.9877,42.442],[-87.9721,42.3544],[-87.901,42.3085],[-87.8766,42.3413],[-87.8682,42.4096],[-87.9597,42.4934],[-87.9877,42.442]]]}},{"type":"Feature","properties":{"id":"zion","name":"Zion","geometrySource":"voronoi-illustrative"},"geometry":{"type":"Polygon","coordinates":[[[-87.9597,42.4934],[-87.8682,42.4096],[-87.8036,42.3999],[-87.8046,42.4312],[-87.8008,42.4451],[-87.7981,42.4717],[-87.8005,42.4782],[-87.7994,42.484],[-87.8021,42.4926],[-87.9596,42.4944],[-87.9597,42.4934]]]}},{"type":"Feature","properties":{"id":"lake-forest","name":"Lake Forest","geometrySource":"voronoi-illustrative"},"geometry":{"type":"Polygon","coordinates":[[[-87.9095,42.2346],[-87.9045,42.2096],[-87.8293,42.2054],[-87.8065,42.2209],[-87.8074,42.223],[-87.8115,42.2285],[-87.8196,42.2518],[-87.8257,42.2624],[-87.8286,42.2699],[-87.8312,42.2833],[-87.8919,42.2828],[-87.9095,42.2346]]]}},{"type":"Feature","properties":{"id":"deerfield","name":"Deerfield","geometrySource":"voronoi-illustrative"},"geometry":{"type":"Polygon","coordinates":[[[-87.9057,42.2057],[-87.8857,42.1528],[-87.8275,42.1526],[-87.8177,42.1568],[-87.8293,42.2054],[-87.9045,42.2096],[-87.9057,42.2057]]]}},{"type":"Feature","properties":{"id":"libertyville","name":"Libertyville","geometrySource":"voronoi-illustrative"},"geometry":{"type":"Polygon","coordinates":[[[-87.9921,42.3266],[-87.9739,42.2507],[-87.9095,42.2346],[-87.8919,42.2828],[-87.901,42.3085],[-87.9721,42.3544],[-87.9921,42.3266]]]}},{"type":"Feature","properties":{"id":"mundelein","name":"Mundelein","geometrySource":"voronoi-illustrative"},"geometry":{"type":"Polygon","coordinates":[[[-88.0828,42.276],[-88.0368,42.2215],[-87.9739,42.2507],[-87.9921,42.3266],[-88.0828,42.276]]]}},{"type":"Feature","properties":{"id":"vernon-hills","name":"Vernon Hills","geometrySource":"voronoi-illustrative"},"geometry":{"type":"Polygon","coordinates":[[[-88.0638,42.1536],[-87.9893,42.1533],[-87.8857,42.1528],[-87.9057,42.2057],[-87.9045,42.2096],[-87.9095,42.2346],[-87.9739,42.2507],[-88.0368,42.2215],[-88.0303,42.1765],[-88.0638,42.1536]]]}},{"type":"Feature","properties":{"id":"grayslake","name":"Grayslake","geometrySource":"voronoi-illustrative"},"geometry":{"type":"Polygon","coordinates":[[[-88.1147,42.2868],[-88.0828,42.276],[-87.9921,42.3266],[-87.9721,42.3544],[-87.9877,42.442],[-88.0031,42.436],[-88.1147,42.2868]]]}},{"type":"Feature","properties":{"id":"antioch","name":"Antioch","geometrySource":"voronoi-illustrative"},"geometry":{"type":"Polygon","coordinates":[[[-88.2551,42.4951],[-88.184,42.4089],[-88.0031,42.436],[-87.9877,42.442],[-87.9597,42.4934],[-87.9596,42.4944],[-88.1153,42.4962],[-88.1994,42.496],[-88.2551,42.4951]]]}},{"type":"Feature","properties":{"id":"lake-zurich","name":"Lake Zurich","geometrySource":"voronoi-illustrative"},"geometry":{"type":"Polygon","coordinates":[[[-88.202,42.2334],[-88.1992,42.2157],[-88.199,42.236],[-88.1982,42.2416],[-88.199,42.2074],[-88.198,42.2082],[-88.1744,42.1573],[-88.1672,42.1541],[-88.0638,42.1536],[-88.0303,42.1765],[-88.0368,42.2215],[-88.0828,42.276],[-88.1147,42.2868],[-88.1598,42.2906],[-88.201,42.2384],[-88.202,42.2334]]]}},{"type":"Feature","properties":{"id":"round-lake-beach","name":"Round Lake Beach","geometrySource":"voronoi-illustrative"},"geometry":{"type":"Polygon","coordinates":[[[-88.184,42.4089],[-88.1598,42.2906],[-88.1147,42.2868],[-88.0031,42.436],[-88.184,42.4089]]]}},{"type":"Feature","properties":{"id":"bolingbrook","name":"Bolingbrook","geometrySource":"voronoi-illustrative"},"geometry":{"type":"Polygon","coordinates":[[[-88.1301,41.6938],[-88.028,41.6523],[-88.0303,41.7275],[-88.0304,41.7289],[-88.1129,41.7274],[-88.1129,41.7218],[-88.1301,41.6938]]]}},{"type":"Feature","properties":{"id":"plainfield","name":"Plainfield","geometrySource":"voronoi-illustrative"},"geometry":{"type":"Polygon","coordinates":[[[-88.2613,41.7247],[-88.2606,41.6966],[-88.2594,41.6435],[-88.2569,41.5786],[-88.1491,41.5705],[-88.139,41.5828],[-88.1554,41.6782],[-88.1301,41.6938],[-88.1129,41.7218],[-88.1129,41.7274],[-88.2386,41.7251],[-88.2613,41.7247]]]}},{"type":"Feature","properties":{"id":"romeoville","name":"Romeoville","geometrySource":"voronoi-illustrative"},"geometry":{"type":"Polygon","coordinates":[[[-88.1554,41.6782],[-88.139,41.5828],[-88.1337,41.5832],[-88.0278,41.6445],[-88.028,41.6523],[-88.1301,41.6938],[-88.1554,41.6782]]]}},{"type":"Feature","properties":{"id":"new-lenox","name":"New Lenox","geometrySource":"voronoi-illustrative"},"geometry":{"type":"Polygon","coordinates":[[[-88.0406,41.3944],[-87.9306,41.2943],[-87.9125,41.4565],[-87.9348,41.5517],[-87.9964,41.5647],[-88.0202,41.5378],[-88.0406,41.3944]]]}},{"type":"Feature","properties":{"id":"frankfort","name":"Frankfort","geometrySource":"voronoi-illustrative"},"geometry":{"type":"Polygon","coordinates":[[[-87.9306,41.2943],[-87.9302,41.2937],[-87.7817,41.2959],[-87.7783,41.2959],[-87.7959,41.5161],[-87.8383,41.5501],[-87.9125,41.4565],[-87.9306,41.2943]]]}},{"type":"Feature","properties":{"id":"mokena","name":"Mokena","geometrySource":"voronoi-illustrative"},"geometry":{"type":"Polygon","coordinates":[[[-87.9348,41.5517],[-87.9125,41.4565],[-87.8383,41.5501],[-87.8478,41.5704],[-87.89,41.5842],[-87.9348,41.5517]]]}},{"type":"Feature","properties":{"id":"lockport","name":"Lockport","geometrySource":"voronoi-illustrative"},"geometry":{"type":"Polygon","coordinates":[[[-88.1337,41.5832],[-88.0202,41.5378],[-87.9964,41.5647],[-88.0071,41.6506],[-88.0199,41.6491],[-88.0278,41.6445],[-88.0277,41.6415],[-88.0278,41.6445],[-88.1337,41.5832]]]}},{"type":"Feature","properties":{"id":"shorewood","name":"Shorewood","geometrySource":"voronoi-illustrative"},"geometry":{"type":"Polygon","coordinates":[[[-88.2569,41.5786],[-88.2501,41.4045],[-88.2498,41.3938],[-88.147,41.4264],[-88.1491,41.5705],[-88.2569,41.5786]]]}},{"type":"Feature","properties":{"id":"homer-glen","name":"Homer Glen","geometrySource":"voronoi-illustrative"},"geometry":{"type":"Polygon","coordinates":[[[-88.0303,41.7275],[-88.029,41.6852],[-88.028,41.6523],[-88.0278,41.6445],[-88.0199,41.6491],[-88.0071,41.6506],[-87.9964,41.5647],[-87.9348,41.5517],[-87.89,41.5842],[-87.9252,41.7018],[-87.9415,41.703],[-87.9705,41.6982],[-88.0038,41.7294],[-88.0303,41.7275]]]}},{"type":"Feature","properties":{"id":"wilmington","name":"Wilmington","geometrySource":"voronoi-illustrative"},"geometry":{"type":"Polygon","coordinates":[[[-88.2498,41.3938],[-88.2441,41.2016],[-88.0118,41.2055],[-88.0139,41.2924],[-87.9302,41.2937],[-87.9306,41.2943],[-88.0406,41.3944],[-88.147,41.4264],[-88.2498,41.3938]]]}},{"type":"Feature","properties":{"id":"st-charles","name":"St. Charles","geometrySource":"voronoi-illustrative"},"geometry":{"type":"Polygon","coordinates":[[[-88.5301,41.9682],[-88.44,41.889],[-88.4203,41.8821],[-88.3754,41.8821],[-88.2629,41.9141],[-88.263,41.9431],[-88.4594,42.0006],[-88.5301,41.9682]]]}},{"type":"Feature","properties":{"id":"geneva","name":"Geneva","geometrySource":"voronoi-illustrative"},"geometry":{"type":"Polygon","coordinates":[[[-88.3754,41.8821],[-88.2626,41.8597],[-88.2629,41.9141],[-88.263,41.9431],[-88.2632,41.9743],[-88.2629,41.9141],[-88.3754,41.8821]]]}},{"type":"Feature","properties":{"id":"batavia","name":"Batavia","geometrySource":"voronoi-illustrative"},"geometry":{"type":"Polygon","coordinates":[[[-88.4203,41.8821],[-88.3136,41.8051],[-88.2623,41.8008],[-88.2626,41.8597],[-88.3754,41.8821],[-88.4203,41.8821]]]}},{"type":"Feature","properties":{"id":"south-elgin","name":"South Elgin","geometrySource":"voronoi-illustrative"},"geometry":{"type":"Polygon","coordinates":[[[-88.4594,42.0006],[-88.263,41.9431],[-88.2634,42.0112],[-88.4157,42.0356],[-88.4594,42.0006]]]}},{"type":"Feature","properties":{"id":"carpentersville","name":"Carpentersville","geometrySource":"voronoi-illustrative"},"geometry":{"type":"Polygon","coordinates":[[[-88.3314,42.0967],[-88.2182,42.0628],[-88.1759,42.154],[-88.2305,42.1542],[-88.1996,42.1543],[-88.1758,42.1542],[-88.1672,42.1541],[-88.1744,42.1573],[-88.198,42.2082],[-88.199,42.2074],[-88.1993,42.1933],[-88.1992,42.2072],[-88.3314,42.0967]]]}},{"type":"Feature","properties":{"id":"north-aurora","name":"North Aurora","geometrySource":"voronoi-illustrative"},"geometry":{"type":"Polygon","coordinates":[[[-88.44,41.889],[-88.3852,41.7228],[-88.3811,41.7229],[-88.3136,41.8051],[-88.4203,41.8821],[-88.44,41.889]]]}},{"type":"Feature","properties":{"id":"sugar-grove","name":"Sugar Grove","geometrySource":"voronoi-illustrative"},"geometry":{"type":"Polygon","coordinates":[[[-88.6026,41.8068],[-88.6019,41.7196],[-88.3852,41.7228],[-88.44,41.889],[-88.5301,41.9682],[-88.6016,41.9717],[-88.6013,41.9094],[-88.6026,41.8068]]]}},{"type":"Feature","properties":{"id":"crystal-lake","name":"Crystal Lake","geometrySource":"voronoi-illustrative"},"geometry":{"type":"Polygon","coordinates":[[[-88.3998,42.2467],[-88.3611,42.1871],[-88.202,42.2334],[-88.201,42.2384],[-88.3574,42.3231],[-88.3998,42.2467]]]}},{"type":"Feature","properties":{"id":"woodstock","name":"Woodstock","geometrySource":"voronoi-illustrative"},"geometry":{"type":"Polygon","coordinates":[[[-88.7074,42.4936],[-88.7059,42.415],[-88.7057,42.205],[-88.3998,42.2467],[-88.3574,42.3231],[-88.375,42.4949],[-88.6387,42.495],[-88.7074,42.4936]]]}},{"type":"Feature","properties":{"id":"mchenry","name":"McHenry","geometrySource":"voronoi-illustrative"},"geometry":{"type":"Polygon","coordinates":[[[-88.375,42.4949],[-88.3574,42.3231],[-88.201,42.2384],[-88.1598,42.2906],[-88.184,42.4089],[-88.2551,42.4951],[-88.2717,42.4948],[-88.375,42.4949]]]}},{"type":"Feature","properties":{"id":"algonquin","name":"Algonquin","geometrySource":"voronoi-illustrative"},"geometry":{"type":"Polygon","coordinates":[[[-88.7057,42.205],[-88.7056,42.1535],[-88.3617,42.154],[-88.3368,42.1541],[-88.3617,42.154],[-88.3628,42.0939],[-88.3314,42.0967],[-88.1992,42.2072],[-88.1992,42.2157],[-88.202,42.2334],[-88.3611,42.1871],[-88.3998,42.2467],[-88.7057,42.205]]]}},{"type":"Feature","properties":{"id":"huntley","name":"Huntley","geometrySource":"voronoi-illustrative"},"geometry":{"type":"Polygon","coordinates":[[[-88.602,42.0665],[-88.6016,41.9717],[-88.5301,41.9682],[-88.4594,42.0006],[-88.4157,42.0356],[-88.3628,42.0939],[-88.3617,42.154],[-88.5887,42.1536],[-88.5883,42.0665],[-88.602,42.0665]]]}}]}