{"type":"FeatureCollection","metadata":{"source":"Mixed: City of Chicago Data Portal \"Boundaries - Community Areas (current)\" (data.cityofchicago.org, resource igwz-8jzy) for the 35 Chicago community areas; illustrative MVP squares centered on real town-center coordinates for the 22 suburbs (see per-feature properties.geometrySource).","sourceUrl":"https://data.cityofchicago.org/resource/igwz-8jzy.geojson","geographicLevel":"neighborhood","year":2025,"valueType":"estimated","notes":"properties.geometrySource is \"official\" for the 35 Chicago community-area polygons (real boundaries, simplified with Ramer-Douglas-Peucker to ~11m precision and reduced to their largest ring to control file size — not survey-accurate at high zoom) and \"illustrative\" for the 22 suburb polygons (simplified squares, NOT real municipal boundaries; centroids and county/municipality assignments for suburbs are accurate, only the polygon shape is illustrative). Replace suburb geometry with U.S. Census TIGER/Line \"Places\" boundaries for production. Every feature's properties.id matches a Neighborhood.geoFeatureId in src/data/neighborhoods.json."},"features":[{"type":"Feature","properties":{"id":"rogers-park","name":"Rogers Park","geometrySource":"official"},"geometry":{"type":"Polygon","coordinates":[[[-87.6546,41.9982],[-87.6768,41.998],[-87.6819,42.0091],[-87.6847,42.0195],[-87.6731,42.0194],[-87.6771,42.023],[-87.6651,42.0229],[-87.661,42.012],[-87.6551,42.0069],[-87.6574,42.0056],[-87.6546,41.9982]]]}},{"type":"Feature","properties":{"id":"west-ridge","name":"West Ridge","geometrySource":"official"},"geometry":{"type":"Polygon","coordinates":[[[-87.6847,42.0195],[-87.6818,42.0087],[-87.6768,41.998],[-87.675,41.998],[-87.6748,41.9908],[-87.6897,41.9905],[-87.6894,41.9832],[-87.7069,41.9831],[-87.7107,41.9973],[-87.7095,41.9974],[-87.709,42.0191],[-87.6847,42.0195]]]}},{"type":"Feature","properties":{"id":"uptown","name":"Uptown","geometrySource":"official"},"geometry":{"type":"Polygon","coordinates":[[[-87.641,41.9548],[-87.6622,41.9544],[-87.666,41.9616],[-87.674,41.9615],[-87.6744,41.9761],[-87.6513,41.9765],[-87.6461,41.9778],[-87.6461,41.9729],[-87.643,41.9681],[-87.632,41.9651],[-87.631,41.9684],[-87.632,41.9685],[-87.6311,41.9688],[-87.6315,41.9625],[-87.6366,41.9595],[-87.6403,41.9592],[-87.6407,41.9608],[-87.6373,41.9605],[-87.6354,41.9625],[-87.6421,41.9618],[-87.641,41.9594],[-87.6417,41.9584],[-87.641,41.9548]]]}},{"type":"Feature","properties":{"id":"lincoln-square","name":"Lincoln Square","geometrySource":"official"},"geometry":{"type":"Polygon","coordinates":[[[-87.6744,41.9761],[-87.674,41.9615],[-87.6947,41.9613],[-87.7032,41.9712],[-87.7069,41.9831],[-87.6894,41.9832],[-87.6897,41.9905],[-87.6747,41.9908],[-87.6744,41.9761]]]}},{"type":"Feature","properties":{"id":"north-center","name":"North Center","geometrySource":"official"},"geometry":{"type":"Polygon","coordinates":[[[-87.6734,41.9323],[-87.6828,41.9322],[-87.6901,41.9367],[-87.6936,41.9403],[-87.6954,41.9431],[-87.6969,41.95],[-87.6946,41.9539],[-87.6947,41.9613],[-87.674,41.9615],[-87.6734,41.9323]]]}},{"type":"Feature","properties":{"id":"lakeview","name":"Lakeview","geometrySource":"official"},"geometry":{"type":"Polygon","coordinates":[[[-87.641,41.9548],[-87.6375,41.9474],[-87.633,41.9424],[-87.6359,41.943],[-87.6374,41.9458],[-87.6421,41.9479],[-87.64,41.9459],[-87.6405,41.9448],[-87.6371,41.9398],[-87.6355,41.9397],[-87.634,41.9416],[-87.6307,41.9325],[-87.6734,41.9323],[-87.674,41.9615],[-87.666,41.9616],[-87.6622,41.9544],[-87.641,41.9548]]]}},{"type":"Feature","properties":{"id":"lincoln-park","name":"Lincoln Park","geometrySource":"official"},"geometry":{"type":"Polygon","coordinates":[[[-87.6318,41.9326],[-87.6307,41.9319],[-87.6299,41.9235],[-87.6283,41.9231],[-87.6295,41.9224],[-87.6285,41.921],[-87.6277,41.9214],[-87.6289,41.9208],[-87.6273,41.9197],[-87.6284,41.9192],[-87.6268,41.9183],[-87.6279,41.9176],[-87.6231,41.9137],[-87.6206,41.9134],[-87.6203,41.9148],[-87.6205,41.9134],[-87.6271,41.9113],[-87.6567,41.9108],[-87.6587,41.9147],[-87.6611,41.9162],[-87.6638,41.9157],[-87.6681,41.922],[-87.6722,41.9228],[-87.6743,41.9244],[-87.6749,41.9267],[-87.6797,41.9285],[-87.6828,41.9322],[-87.6318,41.9326]]]}},{"type":"Feature","properties":{"id":"near-north-side","name":"Near North Side","geometrySource":"official"},"geometry":{"type":"Polygon","coordinates":[[[-87.6245,41.9116],[-87.6251,41.9091],[-87.6237,41.904],[-87.6192,41.9011],[-87.6137,41.8931],[-87.612,41.8933],[-87.6102,41.8962],[-87.6024,41.8964],[-87.6024,41.8933],[-87.6098,41.8931],[-87.6098,41.8922],[-87.6007,41.8924],[-87.5985,41.8923],[-87.5985,41.8915],[-87.6095,41.891],[-87.6095,41.8893],[-87.6112,41.8893],[-87.6114,41.8906],[-87.6199,41.8905],[-87.6126,41.8902],[-87.614,41.8884],[-87.6251,41.8889],[-87.6276,41.8875],[-87.6356,41.8875],[-87.6376,41.8862],[-87.6441,41.8941],[-87.6449,41.8977],[-87.6488,41.8981],[-87.6559,41.9012],[-87.6583,41.905],[-87.6575,41.9091],[-87.6592,41.9091],[-87.6569,41.9108],[-87.6245,41.9116]]]}},{"type":"Feature","properties":{"id":"jefferson-park","name":"Jefferson Park","geometrySource":"official"},"geometry":{"type":"Polygon","coordinates":[[[-87.7526,41.968],[-87.788,41.9684],[-87.7877,41.9829],[-87.778,41.9829],[-87.7778,41.9939],[-87.7829,41.9962],[-87.7829,41.9974],[-87.7716,41.9965],[-87.7714,41.9949],[-87.7737,41.9931],[-87.7729,41.9918],[-87.7709,41.9914],[-87.7717,41.9901],[-87.7705,41.9891],[-87.7621,41.9901],[-87.7623,41.988],[-87.7607,41.988],[-87.7551,41.9773],[-87.7552,41.9725],[-87.7528,41.9725],[-87.7526,41.968]]]}},{"type":"Feature","properties":{"id":"albany-park","name":"Albany Park","geometrySource":"official"},"geometry":{"type":"Polygon","coordinates":[[[-87.704,41.9736],[-87.7026,41.9703],[-87.6947,41.9613],[-87.7297,41.9609],[-87.7379,41.9665],[-87.7379,41.9681],[-87.7477,41.968],[-87.748,41.9753],[-87.7332,41.9755],[-87.7318,41.9718],[-87.7281,41.9719],[-87.7282,41.9755],[-87.726,41.9761],[-87.7157,41.9719],[-87.7123,41.9724],[-87.7087,41.9747],[-87.704,41.9736]]]}},{"type":"Feature","properties":{"id":"portage-park","name":"Portage Park","geometrySource":"official"},"geometry":{"type":"Polygon","coordinates":[[[-87.7526,41.968],[-87.7477,41.968],[-87.7472,41.9634],[-87.7479,41.9635],[-87.7444,41.9608],[-87.7465,41.9607],[-87.7425,41.9535],[-87.7422,41.9425],[-87.743,41.9425],[-87.7421,41.9389],[-87.7762,41.9384],[-87.7768,41.9531],[-87.7866,41.9529],[-87.7868,41.9684],[-87.7526,41.968]]]}},{"type":"Feature","properties":{"id":"irving-park","name":"Irving Park","geometrySource":"official"},"geometry":{"type":"Polygon","coordinates":[[[-87.6947,41.9613],[-87.6946,41.9539],[-87.6969,41.95],[-87.6962,41.9467],[-87.7274,41.9464],[-87.7272,41.9391],[-87.7421,41.9389],[-87.743,41.9425],[-87.7422,41.9425],[-87.7425,41.9535],[-87.7465,41.9607],[-87.7444,41.9608],[-87.7479,41.9635],[-87.7472,41.9634],[-87.7477,41.968],[-87.7379,41.9681],[-87.7379,41.9665],[-87.7297,41.9609],[-87.6947,41.9613]]]}},{"type":"Feature","properties":{"id":"avondale","name":"Avondale","geometrySource":"official"},"geometry":{"type":"Polygon","coordinates":[[[-87.688,41.9361],[-87.6879,41.9322],[-87.7315,41.9317],[-87.7352,41.939],[-87.7272,41.9391],[-87.7274,41.9464],[-87.6962,41.9467],[-87.6936,41.9403],[-87.6901,41.9367],[-87.688,41.9361]]]}},{"type":"Feature","properties":{"id":"logan-square","name":"Logan Square","geometrySource":"official"},"geometry":{"type":"Polygon","coordinates":[[[-87.6828,41.9322],[-87.6797,41.9285],[-87.6749,41.9267],[-87.6743,41.9244],[-87.6722,41.9228],[-87.6681,41.922],[-87.6636,41.9156],[-87.6674,41.9143],[-87.6824,41.9146],[-87.6824,41.9136],[-87.7223,41.9136],[-87.7241,41.9154],[-87.7249,41.919],[-87.7266,41.919],[-87.7268,41.9245],[-87.7277,41.9245],[-87.7315,41.9317],[-87.6879,41.9322],[-87.688,41.9361],[-87.6828,41.9322]]]}},{"type":"Feature","properties":{"id":"humboldt-park","name":"Humboldt Park","geometrySource":"official"},"geometry":{"type":"Polygon","coordinates":[[[-87.6916,41.8882],[-87.7406,41.8878],[-87.7413,41.9139],[-87.702,41.9139],[-87.7019,41.9102],[-87.707,41.9101],[-87.7067,41.8992],[-87.702,41.8992],[-87.7022,41.8956],[-87.6967,41.8957],[-87.6967,41.8943],[-87.6917,41.8923],[-87.6916,41.8882]]]}},{"type":"Feature","properties":{"id":"west-town","name":"West Town","geometrySource":"official"},"geometry":{"type":"Polygon","coordinates":[[[-87.6569,41.9108],[-87.6592,41.9091],[-87.6575,41.9091],[-87.6583,41.905],[-87.6559,41.9012],[-87.6488,41.8981],[-87.6449,41.8977],[-87.6441,41.8941],[-87.6394,41.8891],[-87.6916,41.8882],[-87.6917,41.8923],[-87.6967,41.8943],[-87.6967,41.8957],[-87.7022,41.8956],[-87.702,41.8992],[-87.7067,41.8992],[-87.707,41.9101],[-87.7019,41.9102],[-87.702,41.9139],[-87.6674,41.9143],[-87.6612,41.9162],[-87.6581,41.9141],[-87.6569,41.9108]]]}},{"type":"Feature","properties":{"id":"austin","name":"Austin","geometrySource":"official"},"geometry":{"type":"Polygon","coordinates":[[[-87.7894,41.9175],[-87.7853,41.9165],[-87.7638,41.9166],[-87.7413,41.9139],[-87.7398,41.866],[-87.7741,41.8655],[-87.7756,41.9093],[-87.8057,41.9088],[-87.8062,41.9234],[-87.7894,41.9175]]]}},{"type":"Feature","properties":{"id":"near-west-side","name":"Near West Side","geometrySource":"official"},"geometry":{"type":"Polygon","coordinates":[[[-87.6376,41.8862],[-87.6381,41.8792],[-87.6361,41.8747],[-87.6347,41.8673],[-87.6352,41.8577],[-87.6389,41.8577],[-87.639,41.86],[-87.6743,41.8595],[-87.6858,41.8584],[-87.6858,41.8594],[-87.6882,41.8593],[-87.6882,41.8631],[-87.6912,41.8684],[-87.6923,41.8844],[-87.6905,41.8876],[-87.6866,41.8886],[-87.6394,41.8891],[-87.6376,41.8862]]]}},{"type":"Feature","properties":{"id":"north-lawndale","name":"North Lawndale","geometrySource":"official"},"geometry":{"type":"Polygon","coordinates":[[[-87.7202,41.8699],[-87.6912,41.8693],[-87.6908,41.8666],[-87.6882,41.8631],[-87.688,41.857],[-87.6956,41.8553],[-87.7029,41.8555],[-87.7029,41.8538],[-87.7112,41.8536],[-87.7111,41.852],[-87.7124,41.8517],[-87.7223,41.8516],[-87.7222,41.8494],[-87.7393,41.8456],[-87.7399,41.869],[-87.7327,41.871],[-87.7326,41.869],[-87.7202,41.8686],[-87.7202,41.8699]]]}},{"type":"Feature","properties":{"id":"south-lawndale","name":"South Lawndale (Little Village)","geometrySource":"official"},"geometry":{"type":"Polygon","coordinates":[[[-87.6874,41.8348],[-87.7386,41.8187],[-87.7393,41.8456],[-87.7222,41.8494],[-87.7223,41.8516],[-87.7124,41.8517],[-87.7111,41.852],[-87.7112,41.8536],[-87.7029,41.8538],[-87.7029,41.8555],[-87.6956,41.8553],[-87.688,41.857],[-87.6874,41.8348]]]}},{"type":"Feature","properties":{"id":"pilsen","name":"Pilsen (Lower West Side)","geometrySource":"official"},"geometry":{"type":"Polygon","coordinates":[[[-87.6352,41.8577],[-87.6433,41.8497],[-87.6586,41.8473],[-87.6636,41.8444],[-87.665,41.8416],[-87.6643,41.8391],[-87.6665,41.8379],[-87.6797,41.8371],[-87.6875,41.8349],[-87.6881,41.8593],[-87.6858,41.8594],[-87.6858,41.8584],[-87.6743,41.8595],[-87.639,41.86],[-87.6389,41.8577],[-87.6352,41.8577]]]}},{"type":"Feature","properties":{"id":"loop","name":"Loop","geometrySource":"official"},"geometry":{"type":"Polygon","coordinates":[[[-87.6095,41.8894],[-87.6025,41.8883],[-87.6098,41.888],[-87.61,41.8841],[-87.6127,41.8841],[-87.6164,41.882],[-87.6162,41.8689],[-87.6154,41.8683],[-87.6347,41.8673],[-87.6382,41.88],[-87.6374,41.8864],[-87.6356,41.8875],[-87.6276,41.8875],[-87.6251,41.8889],[-87.614,41.8884],[-87.6126,41.8902],[-87.6199,41.8905],[-87.6114,41.8906],[-87.6112,41.8893],[-87.6095,41.8894]]]}},{"type":"Feature","properties":{"id":"near-south-side","name":"Near South Side","geometrySource":"official"},"geometry":{"type":"Polygon","coordinates":[[[-87.6091,41.8447],[-87.6292,41.8456],[-87.6302,41.8578],[-87.6352,41.8577],[-87.6347,41.8673],[-87.619,41.8675],[-87.6136,41.8685],[-87.6124,41.8679],[-87.6127,41.8668],[-87.6059,41.8669],[-87.606,41.8648],[-87.6076,41.8643],[-87.606,41.862],[-87.606,41.8601],[-87.6071,41.86],[-87.6065,41.8534],[-87.6099,41.8538],[-87.6093,41.8568],[-87.6107,41.8607],[-87.6096,41.8634],[-87.6105,41.8659],[-87.6127,41.8658],[-87.6134,41.8634],[-87.6122,41.8603],[-87.6129,41.8564],[-87.6092,41.8509],[-87.6095,41.8481],[-87.6084,41.8461],[-87.6091,41.8447]]]}},{"type":"Feature","properties":{"id":"kenwood","name":"Kenwood","geometrySource":"official"},"geometry":{"type":"Polygon","coordinates":[[[-87.5922,41.8169],[-87.59,41.8135],[-87.5873,41.8118],[-87.5852,41.8072],[-87.5801,41.8039],[-87.5804,41.8025],[-87.6064,41.8023],[-87.6067,41.8168],[-87.5922,41.8169]]]}},{"type":"Feature","properties":{"id":"hyde-park","name":"Hyde Park","geometrySource":"official"},"geometry":{"type":"Polygon","coordinates":[[[-87.5804,41.8025],[-87.5799,41.7984],[-87.5752,41.7962],[-87.5789,41.7943],[-87.5796,41.792],[-87.5763,41.7886],[-87.5778,41.7883],[-87.5771,41.7861],[-87.606,41.7859],[-87.6064,41.8023],[-87.5804,41.8025]]]}},{"type":"Feature","properties":{"id":"woodlawn","name":"Woodlawn","geometrySource":"official"},"geometry":{"type":"Polygon","coordinates":[[[-87.5771,41.7861],[-87.576,41.7836],[-87.5705,41.7814],[-87.5684,41.7816],[-87.5675,41.7846],[-87.5683,41.7815],[-87.5731,41.7803],[-87.5753,41.7774],[-87.575,41.7758],[-87.572,41.7758],[-87.5734,41.7783],[-87.5722,41.7792],[-87.5668,41.7736],[-87.6058,41.7731],[-87.6056,41.7659],[-87.6154,41.773],[-87.6158,41.7857],[-87.5771,41.7861]]]}},{"type":"Feature","properties":{"id":"south-shore","name":"South Shore","geometrySource":"official"},"geometry":{"type":"Polygon","coordinates":[[[-87.544,41.7552],[-87.5466,41.7539],[-87.5477,41.7545],[-87.5523,41.7519],[-87.5858,41.7515],[-87.5956,41.7587],[-87.5946,41.7623],[-87.5933,41.7624],[-87.5933,41.766],[-87.5923,41.766],[-87.5921,41.7733],[-87.5664,41.7738],[-87.5636,41.772],[-87.5623,41.769],[-87.5605,41.7684],[-87.5595,41.7692],[-87.5594,41.7668],[-87.5605,41.7654],[-87.5561,41.7618],[-87.5487,41.7587],[-87.5439,41.7601],[-87.5465,41.7607],[-87.543,41.7596],[-87.5406,41.7573],[-87.544,41.7552]]]}},{"type":"Feature","properties":{"id":"chatham","name":"Chatham","geometrySource":"official"},"geometry":{"type":"Polygon","coordinates":[[[-87.5953,41.7368],[-87.6004,41.7367],[-87.6045,41.7225],[-87.6173,41.7291],[-87.6257,41.729],[-87.6327,41.736],[-87.6341,41.7435],[-87.6392,41.7434],[-87.6395,41.7505],[-87.5972,41.7514],[-87.5979,41.7417],[-87.5953,41.7368]]]}},{"type":"Feature","properties":{"id":"pullman","name":"Pullman","geometrySource":"official"},"geometry":{"type":"Polygon","coordinates":[[[-87.6016,41.6862],[-87.6114,41.6857],[-87.6032,41.722],[-87.5867,41.7223],[-87.585,41.7207],[-87.5851,41.709],[-87.5857,41.7078],[-87.5873,41.7077],[-87.5881,41.7051],[-87.5944,41.699],[-87.6016,41.6862]]]}},{"type":"Feature","properties":{"id":"bridgeport","name":"Bridgeport","geometrySource":"official"},"geometry":{"type":"Polygon","coordinates":[[[-87.634,41.8236],[-87.6561,41.8233],[-87.6571,41.824],[-87.6574,41.8312],[-87.6645,41.8396],[-87.665,41.8416],[-87.6638,41.8443],[-87.6586,41.8473],[-87.6459,41.8494],[-87.6422,41.8489],[-87.6416,41.8463],[-87.6384,41.8462],[-87.6383,41.8436],[-87.6365,41.8436],[-87.6364,41.8272],[-87.6361,41.8252],[-87.634,41.8236]]]}},{"type":"Feature","properties":{"id":"englewood","name":"Englewood","geometrySource":"official"},"geometry":{"type":"Polygon","coordinates":[[[-87.6283,41.7832],[-87.629,41.7831],[-87.6285,41.78],[-87.6301,41.78],[-87.63,41.7727],[-87.631,41.7727],[-87.6314,41.7691],[-87.6335,41.769],[-87.6335,41.7672],[-87.6347,41.7672],[-87.6345,41.7599],[-87.6357,41.7599],[-87.6357,41.7581],[-87.6393,41.758],[-87.6393,41.7562],[-87.6441,41.7561],[-87.6442,41.7581],[-87.6539,41.758],[-87.6549,41.7942],[-87.6286,41.7946],[-87.6283,41.7832]]]}},{"type":"Feature","properties":{"id":"auburn-gresham","name":"Auburn Gresham","geometrySource":"official"},"geometry":{"type":"Polygon","coordinates":[[[-87.6399,41.7561],[-87.6392,41.7434],[-87.6341,41.7435],[-87.6337,41.7289],[-87.6446,41.7287],[-87.6452,41.7298],[-87.648,41.7287],[-87.6465,41.7325],[-87.6654,41.7321],[-87.6653,41.7302],[-87.6681,41.7302],[-87.6776,41.7415],[-87.6786,41.7577],[-87.6442,41.7581],[-87.6442,41.7561],[-87.6399,41.7561]]]}},{"type":"Feature","properties":{"id":"beverly","name":"Beverly","geometrySource":"official"},"geometry":{"type":"Polygon","coordinates":[[[-87.6731,41.7357],[-87.6672,41.7289],[-87.656,41.7068],[-87.6587,41.6994],[-87.6961,41.6989],[-87.6965,41.7071],[-87.6915,41.7072],[-87.6917,41.7136],[-87.6818,41.7137],[-87.6825,41.7355],[-87.6731,41.7357]]]}},{"type":"Feature","properties":{"id":"morgan-park","name":"Morgan Park","geometrySource":"official"},"geometry":{"type":"Polygon","coordinates":[[[-87.6422,41.6851],[-87.6616,41.6848],[-87.6614,41.6775],[-87.6668,41.6774],[-87.6673,41.676],[-87.6684,41.6762],[-87.668,41.6774],[-87.6862,41.6772],[-87.6857,41.6845],[-87.6956,41.6843],[-87.6959,41.6916],[-87.691,41.6923],[-87.6912,41.699],[-87.6426,41.6996],[-87.6422,41.6851]]]}},{"type":"Feature","properties":{"id":"edgewater","name":"Edgewater","geometrySource":"official"},"geometry":{"type":"Polygon","coordinates":[[[-87.6546,41.9982],[-87.6543,41.9884],[-87.651,41.9857],[-87.6494,41.9864],[-87.6507,41.9832],[-87.6505,41.9795],[-87.6473,41.9777],[-87.6513,41.9765],[-87.6744,41.9761],[-87.675,41.998],[-87.6546,41.9982]]]}},{"type":"Feature","properties":{"id":"evanston","name":"Evanston","geometrySource":"illustrative"},"geometry":{"type":"Polygon","coordinates":[[[-87.7027,42.0301],[-87.6727,42.0301],[-87.6727,42.0601],[-87.7027,42.0601],[-87.7027,42.0301]]]}},{"type":"Feature","properties":{"id":"oak-park","name":"Oak Park","geometrySource":"illustrative"},"geometry":{"type":"Polygon","coordinates":[[[-87.7945,41.875],[-87.7745,41.875],[-87.7745,41.895],[-87.7945,41.895],[-87.7945,41.875]]]}},{"type":"Feature","properties":{"id":"skokie","name":"Skokie","geometrySource":"illustrative"},"geometry":{"type":"Polygon","coordinates":[[[-87.7521,42.0184],[-87.7241,42.0184],[-87.7241,42.0464],[-87.7521,42.0464],[-87.7521,42.0184]]]}},{"type":"Feature","properties":{"id":"cicero","name":"Cicero","geometrySource":"illustrative"},"geometry":{"type":"Polygon","coordinates":[[[-87.7755,41.8346],[-87.7535,41.8346],[-87.7535,41.8566],[-87.7755,41.8566],[-87.7755,41.8346]]]}},{"type":"Feature","properties":{"id":"berwyn","name":"Berwyn","geometrySource":"illustrative"},"geometry":{"type":"Polygon","coordinates":[[[-87.8019,41.8413],[-87.7839,41.8413],[-87.7839,41.8593],[-87.8019,41.8593],[-87.8019,41.8413]]]}},{"type":"Feature","properties":{"id":"arlington-heights","name":"Arlington Heights","geometrySource":"illustrative"},"geometry":{"type":"Polygon","coordinates":[[[-87.9996,42.0694],[-87.9616,42.0694],[-87.9616,42.1074],[-87.9996,42.1074],[-87.9996,42.0694]]]}},{"type":"Feature","properties":{"id":"wilmette","name":"Wilmette","geometrySource":"illustrative"},"geometry":{"type":"Polygon","coordinates":[[[-87.7256,42.0625],[-87.7056,42.0625],[-87.7056,42.0825],[-87.7256,42.0825],[-87.7256,42.0625]]]}},{"type":"Feature","properties":{"id":"des-plaines","name":"Des Plaines","geometrySource":"illustrative"},"geometry":{"type":"Polygon","coordinates":[[[-87.8984,42.0184],[-87.8684,42.0184],[-87.8684,42.0484],[-87.8984,42.0484],[-87.8984,42.0184]]]}},{"type":"Feature","properties":{"id":"park-ridge","name":"Park Ridge","geometrySource":"illustrative"},"geometry":{"type":"Polygon","coordinates":[[[-87.8506,42.0011],[-87.8306,42.0011],[-87.8306,42.0211],[-87.8506,42.0211],[-87.8506,42.0011]]]}},{"type":"Feature","properties":{"id":"orland-park","name":"Orland Park","geometrySource":"illustrative"},"geometry":{"type":"Polygon","coordinates":[[[-87.8748,41.6103],[-87.8348,41.6103],[-87.8348,41.6503],[-87.8748,41.6503],[-87.8748,41.6103]]]}},{"type":"Feature","properties":{"id":"tinley-park","name":"Tinley Park","geometrySource":"illustrative"},"geometry":{"type":"Polygon","coordinates":[[[-87.8066,41.5544],[-87.7686,41.5544],[-87.7686,41.5924],[-87.8066,41.5924],[-87.8066,41.5544]]]}},{"type":"Feature","properties":{"id":"schaumburg","name":"Schaumburg","geometrySource":"illustrative"},"geometry":{"type":"Polygon","coordinates":[[[-88.1034,42.0134],[-88.0634,42.0134],[-88.0634,42.0534],[-88.1034,42.0534],[-88.1034,42.0134]]]}},{"type":"Feature","properties":{"id":"hoffman-estates","name":"Hoffman Estates","geometrySource":"illustrative"},"geometry":{"type":"Polygon","coordinates":[[[-88.1687,42.0508],[-88.1287,42.0508],[-88.1287,42.0908],[-88.1687,42.0908],[-88.1687,42.0508]]]}},{"type":"Feature","properties":{"id":"naperville","name":"Naperville","geometrySource":"illustrative"},"geometry":{"type":"Polygon","coordinates":[[[-88.181,41.7233],[-88.126,41.7233],[-88.126,41.7783],[-88.181,41.7783],[-88.181,41.7233]]]}},{"type":"Feature","properties":{"id":"elmhurst","name":"Elmhurst","geometrySource":"illustrative"},"geometry":{"type":"Polygon","coordinates":[[[-87.9513,41.8885],[-87.9293,41.8885],[-87.9293,41.9105],[-87.9513,41.9105],[-87.9513,41.8885]]]}},{"type":"Feature","properties":{"id":"downers-grove","name":"Downers Grove","geometrySource":"illustrative"},"geometry":{"type":"Polygon","coordinates":[[[-88.0267,41.7939],[-87.9967,41.7939],[-87.9967,41.8239],[-88.0267,41.8239],[-88.0267,41.7939]]]}},{"type":"Feature","properties":{"id":"wheaton","name":"Wheaton","geometrySource":"illustrative"},"geometry":{"type":"Polygon","coordinates":[[[-88.1198,41.8536],[-88.0948,41.8536],[-88.0948,41.8786],[-88.1198,41.8786],[-88.1198,41.8536]]]}},{"type":"Feature","properties":{"id":"aurora","name":"Aurora","geometrySource":"illustrative"},"geometry":{"type":"Polygon","coordinates":[[[-88.3451,41.7356],[-88.2951,41.7356],[-88.2951,41.7856],[-88.3451,41.7856],[-88.3451,41.7356]]]}},{"type":"Feature","properties":{"id":"elgin","name":"Elgin","geometrySource":"illustrative"},"geometry":{"type":"Polygon","coordinates":[[[-88.3051,42.0129],[-88.2601,42.0129],[-88.2601,42.0579],[-88.3051,42.0579],[-88.3051,42.0129]]]}},{"type":"Feature","properties":{"id":"waukegan","name":"Waukegan","geometrySource":"illustrative"},"geometry":{"type":"Polygon","coordinates":[[[-87.8648,42.3436],[-87.8248,42.3436],[-87.8248,42.3836],[-87.8648,42.3836],[-87.8648,42.3436]]]}},{"type":"Feature","properties":{"id":"highland-park","name":"Highland Park","geometrySource":"illustrative"},"geometry":{"type":"Polygon","coordinates":[[[-87.8153,42.1667],[-87.7853,42.1667],[-87.7853,42.1967],[-87.8153,42.1967],[-87.8153,42.1667]]]}},{"type":"Feature","properties":{"id":"joliet","name":"Joliet","geometrySource":"illustrative"},"geometry":{"type":"Polygon","coordinates":[[[-88.1042,41.5025],[-88.0592,41.5025],[-88.0592,41.5475],[-88.1042,41.5475],[-88.1042,41.5025]]]}}]}